{"type": "FeatureCollection", "features": [{"type": "Feature", "id": 217, "geometry": {"type": "Point", "coordinates": [-8.718226798555234, 41.25922747685598]}, "properties": {"OBJECTID": 217, "INDICE_PO": 23, "TEMA_PO": "Sistemas Estruturantes", "SUBTEMA_PO": "Equipamentos de Utilização Coletiva", "designação_PO": "Equipamento de Utilização Coletiva ", "especificações_PO": "Cultura", "subespecificação_PO": "Museu Padre Silva Lopes", "LABEL_PO": "C"}}, {"type": "Feature", "id": 218, "geometry": {"type": "Point", "coordinates": [-8.724660483792592, 41.26098601131534]}, "properties": {"OBJECTID": 218, "INDICE_PO": 23, "TEMA_PO": "Sistemas Estruturantes", "SUBTEMA_PO": "Equipamentos de Utilização Coletiva", "designação_PO": "Equipamento de Utilização Coletiva ", "especificações_PO": "Cultura", "subespecificação_PO": "Casa do Mar e Tanques Romanos", "LABEL_PO": "C"}}, {"type": "Feature", "id": 219, "geometry": {"type": "Point", "coordinates": [-8.69101994681719, 41.192963062423445]}, "properties": {"OBJECTID": 219, "INDICE_PO": 23, "TEMA_PO": "Sistemas Estruturantes", "SUBTEMA_PO": "Equipamentos de Utilização Coletiva", "designação_PO": "Equipamento de Utilização Coletiva ", "especificações_PO": "Cultura", "subespecificação_PO": "Museu da Quinta de Santiago", "LABEL_PO": "C"}}, {"type": "Feature", "id": 220, "geometry": {"type": "Point", "coordinates": [-8.689575562346075, 41.18284133762636]}, "properties": {"OBJECTID": 220, "INDICE_PO": 23, "TEMA_PO": "Sistemas Estruturantes", "SUBTEMA_PO": "Equipamentos de Utilização Coletiva", "designação_PO": "Equipamento de Utilização Coletiva ", "especificações_PO": "Cultura", "subespecificação_PO": "Associação Recreativa Aurora da Liberdade", "LABEL_PO": "C"}}, {"type": "Feature", "id": 221, "geometry": {"type": "Point", "coordinates": [-8.691435087421697, 41.182179750317445]}, "properties": {"OBJECTID": 221, "INDICE_PO": 23, "TEMA_PO": "Sistemas Estruturantes", "SUBTEMA_PO": "Equipamentos de Utilização Coletiva", "designação_PO": "Equipamento de Utilização Coletiva ", "especificações_PO": "Cultura", "subespecificação_PO": "Casa da Arquitectura", "LABEL_PO": "C"}}, {"type": "Feature", "id": 222, "geometry": {"type": "Point", "coordinates": [-8.68218799128409, 41.18864111487624]}, "properties": {"OBJECTID": 222, "INDICE_PO": 23, "TEMA_PO": "Sistemas Estruturantes", "SUBTEMA_PO": "Equipamentos de Utilização Coletiva", "designação_PO": "Equipamento de Utilização Coletiva ", "especificações_PO": "Cultura", "subespecificação_PO": "Núcleo Museológico do Mar", "LABEL_PO": "C"}}, {"type": "Feature", "id": 223, "geometry": {"type": "Point", "coordinates": [-8.683604474112697, 41.18648521189163]}, "properties": {"OBJECTID": 223, "INDICE_PO": 23, "TEMA_PO": "Sistemas Estruturantes", "SUBTEMA_PO": "Equipamentos de Utilização Coletiva", "designação_PO": "Equipamento de Utilização Coletiva ", "especificações_PO": "Cultura", "subespecificação_PO": "Museu da Misericórdia de Matosinhos", "LABEL_PO": "C"}}, {"type": "Feature", "id": 224, "geometry": {"type": "Point", "coordinates": [-8.68685106889863, 41.177925129170035]}, "properties": {"OBJECTID": 224, "INDICE_PO": 23, "TEMA_PO": "Sistemas Estruturantes", "SUBTEMA_PO": "Equipamentos de Utilização Coletiva", "designação_PO": "Equipamento de Utilização Coletiva ", "especificações_PO": "Cultura", "subespecificação_PO": "Núcleo Museológico de Arquitectura", "LABEL_PO": "C"}}, {"type": "Feature", "id": 225, "geometry": {"type": "Point", "coordinates": [-8.682270684541823, 41.18349496612602]}, "properties": {"OBJECTID": 225, "INDICE_PO": 23, "TEMA_PO": "Sistemas Estruturantes", "SUBTEMA_PO": "Equipamentos de Utilização Coletiva", "designação_PO": "Equipamento de Utilização Coletiva ", "especificações_PO": "Cultura", "subespecificação_PO": "Centro Cultural de Matosinhos", "LABEL_PO": "C"}}, {"type": "Feature", "id": 226, "geometry": {"type": "Point", "coordinates": [-8.694935582595047, 41.184072066789895]}, "properties": {"OBJECTID": 226, "INDICE_PO": 23, "TEMA_PO": "Sistemas Estruturantes", "SUBTEMA_PO": "Equipamentos de Utilização Coletiva", "designação_PO": "Equipamento de Utilização Coletiva ", "especificações_PO": "Cultura", "subespecificação_PO": "Cineteatro Constantino Nery - Teatro Municipal", "LABEL_PO": "C"}}, {"type": "Feature", "id": 227, "geometry": {"type": "Point", "coordinates": [-8.683000735754657, 41.18361395108775]}, "properties": {"OBJECTID": 227, "INDICE_PO": 23, "TEMA_PO": "Sistemas Estruturantes", "SUBTEMA_PO": "Equipamentos de Utilização Coletiva", "designação_PO": "Equipamento de Utilização Coletiva ", "especificações_PO": "Cultura", "subespecificação_PO": "Casa da Cidade", "LABEL_PO": "C"}}, {"type": "Feature", "id": 228, "geometry": {"type": "Point", "coordinates": [-8.608942621858166, 41.19226920066488]}, "properties": {"OBJECTID": 228, "INDICE_PO": 23, "TEMA_PO": "Sistemas Estruturantes", "SUBTEMA_PO": "Equipamentos de Utilização Coletiva", "designação_PO": "Equipamento de Utilização Coletiva ", "especificações_PO": "Cultura", "subespecificação_PO": "Grupo Dramático e Musical Flor de Infesta", "LABEL_PO": "C"}}, {"type": "Feature", "id": 229, "geometry": {"type": "Point", "coordinates": [-8.612933342812793, 41.200513882595615]}, "properties": {"OBJECTID": 229, "INDICE_PO": 23, "TEMA_PO": "Sistemas Estruturantes", "SUBTEMA_PO": "Equipamentos de Utilização Coletiva", "designação_PO": "Equipamento de Utilização Coletiva ", "especificações_PO": "Cultura", "subespecificação_PO": "Casa Museu Abel Salazar", "LABEL_PO": "C"}}, {"type": "Feature", "id": 230, "geometry": {"type": "Point", "coordinates": [-8.62558637158606, 41.18537364634225]}, "properties": {"OBJECTID": 230, "INDICE_PO": 23, "TEMA_PO": "Sistemas Estruturantes", "SUBTEMA_PO": "Equipamentos de Utilização Coletiva", "designação_PO": "Equipamento de Utilização Coletiva ", "especificações_PO": "Cultura", "subespecificação_PO": "Museu de Jazigos Minerais Portugueses - INETI", "LABEL_PO": "C"}}]}