{"type": "FeatureCollection", "features": [{"type": "Feature", "id": 109, "geometry": {"type": "Point", "coordinates": [-8.63291089423786, 41.191049540593234]}, "properties": {"OBJECTID": 109, "INDICE_PO": 23, "TEMA_PO": "Sistemas Estruturantes", "SUBTEMA_PO": "Equipamentos de Utilização Coletiva", "designação_PO": "Equipamento de Utilização Coletiva ", "especificações_PO": "Desporto", "subespecificação_PO": "Piscina do Centro Social e Paroquial do Padrão da Légua ", "LABEL_PO": "D"}}, {"type": "Feature", "id": 110, "geometry": {"type": "Point", "coordinates": [-8.65749431495091, 41.17807798616035]}, "properties": {"OBJECTID": 110, "INDICE_PO": 23, "TEMA_PO": "Sistemas Estruturantes", "SUBTEMA_PO": "Equipamentos de Utilização Coletiva", "designação_PO": "Equipamento de Utilização Coletiva ", "especificações_PO": "Desporto", "subespecificação_PO": "Ginásio da Cooperativa Aldeia Nova", "LABEL_PO": "D"}}, {"type": "Feature", "id": 111, "geometry": {"type": "Point", "coordinates": [-8.71947326146369, 41.25859210971169]}, "properties": {"OBJECTID": 111, "INDICE_PO": 23, "TEMA_PO": "Sistemas Estruturantes", "SUBTEMA_PO": "Equipamentos de Utilização Coletiva", "designação_PO": "Equipamento de Utilização Coletiva ", "especificações_PO": "Desporto", "subespecificação_PO": "Recinto Desportivo do Cemitério de Lavra", "LABEL_PO": "D"}}, {"type": "Feature", "id": 112, "geometry": {"type": "Point", "coordinates": [-8.719399144247994, 41.25369412500341]}, "properties": {"OBJECTID": 112, "INDICE_PO": 23, "TEMA_PO": "Sistemas Estruturantes", "SUBTEMA_PO": "Equipamentos de Utilização Coletiva", "designação_PO": "Equipamento de Utilização Coletiva ", "especificações_PO": "Desporto", "subespecificação_PO": "Complexo Desportivo de Lavra", "LABEL_PO": "D"}}, {"type": "Feature", "id": 113, "geometry": {"type": "Point", "coordinates": [-8.704108927006114, 41.19062497242304]}, "properties": {"OBJECTID": 113, "INDICE_PO": 23, "TEMA_PO": "Sistemas Estruturantes", "SUBTEMA_PO": "Equipamentos de Utilização Coletiva", "designação_PO": "Equipamento de Utilização Coletiva ", "especificações_PO": "Desporto", "subespecificação_PO": "Campo Polidesportivo do Parque Infantil Florbela Espanca", "LABEL_PO": "D"}}, {"type": "Feature", "id": 114, "geometry": {"type": "Point", "coordinates": [-8.686770045403058, 41.19705865493158]}, "properties": {"OBJECTID": 114, "INDICE_PO": 23, "TEMA_PO": "Sistemas Estruturantes", "SUBTEMA_PO": "Equipamentos de Utilização Coletiva", "designação_PO": "Equipamento de Utilização Coletiva ", "especificações_PO": "Desporto", "subespecificação_PO": "Quinta da Conceição - Piscina", "LABEL_PO": "D"}}, {"type": "Feature", "id": 115, "geometry": {"type": "Point", "coordinates": [-8.687078868458114, 41.195909584489776]}, "properties": {"OBJECTID": 115, "INDICE_PO": 23, "TEMA_PO": "Sistemas Estruturantes", "SUBTEMA_PO": "Equipamentos de Utilização Coletiva", "designação_PO": "Equipamento de Utilização Coletiva ", "especificações_PO": "Desporto", "subespecificação_PO": "Quinta da Conceição - Campo de Ténis", "LABEL_PO": "D"}}, {"type": "Feature", "id": 116, "geometry": {"type": "Point", "coordinates": [-8.668064477949933, 41.180679622077655]}, "properties": {"OBJECTID": 116, "INDICE_PO": 23, "TEMA_PO": "Sistemas Estruturantes", "SUBTEMA_PO": "Equipamentos de Utilização Coletiva", "designação_PO": "Equipamento de Utilização Coletiva ", "especificações_PO": "Desporto", "subespecificação_PO": "Complexo Recreativo Azenhas de Cima - Pátio", "LABEL_PO": "D"}}, {"type": "Feature", "id": 117, "geometry": {"type": "Point", "coordinates": [-8.683548065246843, 41.22517536339415]}, "properties": {"OBJECTID": 117, "INDICE_PO": 23, "TEMA_PO": "Sistemas Estruturantes", "SUBTEMA_PO": "Equipamentos de Utilização Coletiva", "designação_PO": "Equipamento de Utilização Coletiva ", "especificações_PO": "Desporto", "subespecificação_PO": "Pavilhão Desportivo \"O Choradinho\", do AR de Freixieiro", "LABEL_PO": "D"}}, {"type": "Feature", "id": 118, "geometry": {"type": "Point", "coordinates": [-8.681831105149671, 41.22129756250401]}, "properties": {"OBJECTID": 118, "INDICE_PO": 23, "TEMA_PO": "Sistemas Estruturantes", "SUBTEMA_PO": "Equipamentos de Utilização Coletiva", "designação_PO": "Equipamento de Utilização Coletiva ", "especificações_PO": "Desporto", "subespecificação_PO": "Campo Polidesportivo das Farrapas", "LABEL_PO": "D"}}, {"type": "Feature", "id": 119, "geometry": {"type": "Point", "coordinates": [-8.675660057149967, 41.21807600066647]}, "properties": {"OBJECTID": 119, "INDICE_PO": 23, "TEMA_PO": "Sistemas Estruturantes", "SUBTEMA_PO": "Equipamentos de Utilização Coletiva", "designação_PO": "Equipamento de Utilização Coletiva ", "especificações_PO": "Desporto", "subespecificação_PO": "Campo Polidesportivo Municipal", "LABEL_PO": "D"}}, {"type": "Feature", "id": 120, "geometry": {"type": "Point", "coordinates": [-8.675598432534242, 41.217615035281085]}, "properties": {"OBJECTID": 120, "INDICE_PO": 23, "TEMA_PO": "Sistemas Estruturantes", "SUBTEMA_PO": "Equipamentos de Utilização Coletiva", "designação_PO": "Equipamento de Utilização Coletiva ", "especificações_PO": "Desporto", "subespecificação_PO": "Ginásio do Pavilhão Municipal de Santa Cruz do Bispo", "LABEL_PO": "D"}}, {"type": "Feature", "id": 121, "geometry": {"type": "Point", "coordinates": [-8.674988259405835, 41.21747948596772]}, "properties": {"OBJECTID": 121, "INDICE_PO": 23, "TEMA_PO": "Sistemas Estruturantes", "SUBTEMA_PO": "Equipamentos de Utilização Coletiva", "designação_PO": "Equipamento de Utilização Coletiva ", "especificações_PO": "Desporto", "subespecificação_PO": "Pavilhão Municipal de Santa Cruz do Bispo", "LABEL_PO": "D"}}, {"type": "Feature", "id": 122, "geometry": {"type": "Point", "coordinates": [-8.672472344871467, 41.181573462467746]}, "properties": {"OBJECTID": 122, "INDICE_PO": 23, "TEMA_PO": "Sistemas Estruturantes", "SUBTEMA_PO": "Equipamentos de Utilização Coletiva", "designação_PO": "Equipamento de Utilização Coletiva ", "especificações_PO": "Desporto", "subespecificação_PO": "Campo Polidesportivo Municipal Cruz de Pau", "LABEL_PO": "D"}}, {"type": "Feature", "id": 123, "geometry": {"type": "Point", "coordinates": [-8.67412639487037, 41.18111196366121]}, "properties": {"OBJECTID": 123, "INDICE_PO": 23, "TEMA_PO": "Sistemas Estruturantes", "SUBTEMA_PO": "Equipamentos de Utilização Coletiva", "designação_PO": "Equipamento de Utilização Coletiva ", "especificações_PO": "Desporto", "subespecificação_PO": "Recinto Desportivo da Cooperativa Água Viva", "LABEL_PO": "D"}}, {"type": "Feature", "id": 124, "geometry": {"type": "Point", "coordinates": [-8.678174788267933, 41.18107864252664]}, "properties": {"OBJECTID": 124, "INDICE_PO": 23, "TEMA_PO": "Sistemas Estruturantes", "SUBTEMA_PO": "Equipamentos de Utilização Coletiva", "designação_PO": "Equipamento de Utilização Coletiva ", "especificações_PO": "Desporto", "subespecificação_PO": "Polidesportivo CPT Bairro de Carcavelos", "LABEL_PO": "D"}}, {"type": "Feature", "id": 125, "geometry": {"type": "Point", "coordinates": [-8.678310447762223, 41.18329072762783]}, "properties": {"OBJECTID": 125, "INDICE_PO": 23, "TEMA_PO": "Sistemas Estruturantes", "SUBTEMA_PO": "Equipamentos de Utilização Coletiva", "designação_PO": "Equipamento de Utilização Coletiva ", "especificações_PO": "Desporto", "subespecificação_PO": "Piscina Municipal de Matosinhos", "LABEL_PO": "D"}}, {"type": "Feature", "id": 126, "geometry": {"type": "Point", "coordinates": [-8.679541195698398, 41.18408368017617]}, "properties": {"OBJECTID": 126, "INDICE_PO": 23, "TEMA_PO": "Sistemas Estruturantes", "SUBTEMA_PO": "Equipamentos de Utilização Coletiva", "designação_PO": "Equipamento de Utilização Coletiva ", "especificações_PO": "Desporto", "subespecificação_PO": "Campo Polidesportivo Municipal", "LABEL_PO": "D"}}, {"type": "Feature", "id": 127, "geometry": {"type": "Point", "coordinates": [-8.719181165972145, 41.23172685244257]}, "properties": {"OBJECTID": 127, "INDICE_PO": 23, "TEMA_PO": "Sistemas Estruturantes", "SUBTEMA_PO": "Equipamentos de Utilização Coletiva", "designação_PO": "Equipamento de Utilização Coletiva ", "especificações_PO": "Desporto", "subespecificação_PO": "Campo de Jogos do Grupo Desportivo de Pampelido", "LABEL_PO": "D"}}, {"type": "Feature", "id": 128, "geometry": {"type": "Point", "coordinates": [-8.712944655843147, 41.224177463363475]}, "properties": {"OBJECTID": 128, "INDICE_PO": 23, "TEMA_PO": "Sistemas Estruturantes", "SUBTEMA_PO": "Equipamentos de Utilização Coletiva", "designação_PO": "Equipamento de Utilização Coletiva ", "especificações_PO": "Desporto", "subespecificação_PO": "Recinto Desportivo das Areias", "LABEL_PO": "D"}}, {"type": "Feature", "id": 129, "geometry": {"type": "Point", "coordinates": [-8.713538747992773, 41.21939861067052]}, "properties": {"OBJECTID": 129, "INDICE_PO": 23, "TEMA_PO": "Sistemas Estruturantes", "SUBTEMA_PO": "Equipamentos de Utilização Coletiva", "designação_PO": "Equipamento de Utilização Coletiva ", "especificações_PO": "Desporto", "subespecificação_PO": "Recinto Desportivo Aldeia Nova", "LABEL_PO": "D"}}, {"type": "Feature", "id": 130, "geometry": {"type": "Point", "coordinates": [-8.7139341379707, 41.21869430056138]}, "properties": {"OBJECTID": 130, "INDICE_PO": 23, "TEMA_PO": "Sistemas Estruturantes", "SUBTEMA_PO": "Equipamentos de Utilização Coletiva", "designação_PO": "Equipamento de Utilização Coletiva ", "especificações_PO": "Desporto", "subespecificação_PO": "Campo de Futebol das Salinas - Grupo Desportivo Aldeia Nova", "LABEL_PO": "D"}}, {"type": "Feature", "id": 131, "geometry": {"type": "Point", "coordinates": [-8.699499082355628, 41.2237299631551]}, "properties": {"OBJECTID": 131, "INDICE_PO": 23, "TEMA_PO": "Sistemas Estruturantes", "SUBTEMA_PO": "Equipamentos de Utilização Coletiva", "designação_PO": "Equipamento de Utilização Coletiva ", "especificações_PO": "Desporto", "subespecificação_PO": "Campo Polidesportivo da Guarda", "LABEL_PO": "D"}}, {"type": "Feature", "id": 132, "geometry": {"type": "Point", "coordinates": [-8.699218331819615, 41.222488724347976]}, "properties": {"OBJECTID": 132, "INDICE_PO": 23, "TEMA_PO": "Sistemas Estruturantes", "SUBTEMA_PO": "Equipamentos de Utilização Coletiva", "designação_PO": "Equipamento de Utilização Coletiva ", "especificações_PO": "Desporto", "subespecificação_PO": "Estádio do Futebol Clube de Perafita", "LABEL_PO": "D"}}, {"type": "Feature", "id": 133, "geometry": {"type": "Point", "coordinates": [-8.700620380216066, 41.2220971138229]}, "properties": {"OBJECTID": 133, "INDICE_PO": 23, "TEMA_PO": "Sistemas Estruturantes", "SUBTEMA_PO": "Equipamentos de Utilização Coletiva", "designação_PO": "Equipamento de Utilização Coletiva ", "especificações_PO": "Desporto", "subespecificação_PO": "Piscina Municipal de Perafita", "LABEL_PO": "D"}}, {"type": "Feature", "id": 134, "geometry": {"type": "Point", "coordinates": [-8.683773601322379, 41.19899447849623]}, "properties": {"OBJECTID": 134, "INDICE_PO": 23, "TEMA_PO": "Sistemas Estruturantes", "SUBTEMA_PO": "Equipamentos de Utilização Coletiva", "designação_PO": "Equipamento de Utilização Coletiva ", "especificações_PO": "Desporto", "subespecificação_PO": "Centro Hípico do Porto e Matosinhos", "LABEL_PO": "D"}}, {"type": "Feature", "id": 135, "geometry": {"type": "Point", "coordinates": [-8.694108256122632, 41.18191715707454]}, "properties": {"OBJECTID": 135, "INDICE_PO": 23, "TEMA_PO": "Sistemas Estruturantes", "SUBTEMA_PO": "Equipamentos de Utilização Coletiva", "designação_PO": "Equipamento de Utilização Coletiva ", "especificações_PO": "Desporto", "subespecificação_PO": "Parque Desportivo Infantil", "LABEL_PO": "D"}}, {"type": "Feature", "id": 136, "geometry": {"type": "Point", "coordinates": [-8.691965299931205, 41.1824923227033]}, "properties": {"OBJECTID": 136, "INDICE_PO": 23, "TEMA_PO": "Sistemas Estruturantes", "SUBTEMA_PO": "Equipamentos de Utilização Coletiva", "designação_PO": "Equipamento de Utilização Coletiva ", "especificações_PO": "Desporto", "subespecificação_PO": "Pavilhão Gimnodesportivo Siza Vieira", "LABEL_PO": "D"}}, {"type": "Feature", "id": 137, "geometry": {"type": "Point", "coordinates": [-8.670547039583898, 41.19742678849162]}, "properties": {"OBJECTID": 137, "INDICE_PO": 23, "TEMA_PO": "Sistemas Estruturantes", "SUBTEMA_PO": "Equipamentos de Utilização Coletiva", "designação_PO": "Equipamento de Utilização Coletiva ", "especificações_PO": "Desporto", "subespecificação_PO": "Pavilhão Engenheiro António Maia", "LABEL_PO": "D"}}, {"type": "Feature", "id": 138, "geometry": {"type": "Point", "coordinates": [-8.66608890999192, 41.198791696126996]}, "properties": {"OBJECTID": 138, "INDICE_PO": 23, "TEMA_PO": "Sistemas Estruturantes", "SUBTEMA_PO": "Equipamentos de Utilização Coletiva", "designação_PO": "Equipamento de Utilização Coletiva ", "especificações_PO": "Desporto", "subespecificação_PO": "Nova centralidade - Piscina municipal de Guifões", "LABEL_PO": "D"}}, {"type": "Feature", "id": 139, "geometry": {"type": "Point", "coordinates": [-8.666299919910726, 41.19929673692313]}, "properties": {"OBJECTID": 139, "INDICE_PO": 23, "TEMA_PO": "Sistemas Estruturantes", "SUBTEMA_PO": "Equipamentos de Utilização Coletiva", "designação_PO": "Equipamento de Utilização Coletiva ", "especificações_PO": "Desporto", "subespecificação_PO": "Nova centralidade - Pavilhão municipal de Guifões", "LABEL_PO": "D"}}, {"type": "Feature", "id": 140, "geometry": {"type": "Point", "coordinates": [-8.66235368816951, 41.21160539186235]}, "properties": {"OBJECTID": 140, "INDICE_PO": 23, "TEMA_PO": "Sistemas Estruturantes", "SUBTEMA_PO": "Equipamentos de Utilização Coletiva", "designação_PO": "Equipamento de Utilização Coletiva ", "especificações_PO": "Desporto", "subespecificação_PO": "Parque de Jogos Gatões Futebol Clube - Campo de Futebol", "LABEL_PO": "D"}}, {"type": "Feature", "id": 141, "geometry": {"type": "Point", "coordinates": [-8.662309672614539, 41.21095181783551]}, "properties": {"OBJECTID": 141, "INDICE_PO": 23, "TEMA_PO": "Sistemas Estruturantes", "SUBTEMA_PO": "Equipamentos de Utilização Coletiva", "designação_PO": "Equipamento de Utilização Coletiva ", "especificações_PO": "Desporto", "subespecificação_PO": "Parque de Jogos Gatões Futebol Clube - Polidesportivo", "LABEL_PO": "D"}}, {"type": "Feature", "id": 142, "geometry": {"type": "Point", "coordinates": [-8.688895088751487, 41.202558982855805]}, "properties": {"OBJECTID": 142, "INDICE_PO": 23, "TEMA_PO": "Sistemas Estruturantes", "SUBTEMA_PO": "Equipamentos de Utilização Coletiva", "designação_PO": "Equipamento de Utilização Coletiva ", "especificações_PO": "Desporto", "subespecificação_PO": "Pavilhão Custódio Antunes, do Leça Futebol Clube", "LABEL_PO": "D"}}, {"type": "Feature", "id": 143, "geometry": {"type": "Point", "coordinates": [-8.688818792814146, 41.203424683003576]}, "properties": {"OBJECTID": 143, "INDICE_PO": 23, "TEMA_PO": "Sistemas Estruturantes", "SUBTEMA_PO": "Equipamentos de Utilização Coletiva", "designação_PO": "Equipamento de Utilização Coletiva ", "especificações_PO": "Desporto", "subespecificação_PO": "Estádio do Leça Futebol Clube", "LABEL_PO": "D"}}, {"type": "Feature", "id": 144, "geometry": {"type": "Point", "coordinates": [-8.694751372034009, 41.20369651626305]}, "properties": {"OBJECTID": 144, "INDICE_PO": 23, "TEMA_PO": "Sistemas Estruturantes", "SUBTEMA_PO": "Equipamentos de Utilização Coletiva", "designação_PO": "Equipamento de Utilização Coletiva ", "especificações_PO": "Desporto", "subespecificação_PO": "Zona Desportiva de Leça da Palmeira - Campo Futebol7", "LABEL_PO": "D"}}, {"type": "Feature", "id": 145, "geometry": {"type": "Point", "coordinates": [-8.692905566111783, 41.20431020870384]}, "properties": {"OBJECTID": 145, "INDICE_PO": 23, "TEMA_PO": "Sistemas Estruturantes", "SUBTEMA_PO": "Equipamentos de Utilização Coletiva", "designação_PO": "Equipamento de Utilização Coletiva ", "especificações_PO": "Desporto", "subespecificação_PO": "Zona Desportiva de Leça da Palmeira - Pista de altletismo", "LABEL_PO": "D"}}, {"type": "Feature", "id": 146, "geometry": {"type": "Point", "coordinates": [-8.693642093632215, 41.20430312255733]}, "properties": {"OBJECTID": 146, "INDICE_PO": 23, "TEMA_PO": "Sistemas Estruturantes", "SUBTEMA_PO": "Equipamentos de Utilização Coletiva", "designação_PO": "Equipamento de Utilização Coletiva ", "especificações_PO": "Desporto", "subespecificação_PO": "Zona Desportiva de Leça da Palmeira - Campo Futebol11", "LABEL_PO": "D"}}, {"type": "Feature", "id": 147, "geometry": {"type": "Point", "coordinates": [-8.693701110702396, 41.205435615805456]}, "properties": {"OBJECTID": 147, "INDICE_PO": 23, "TEMA_PO": "Sistemas Estruturantes", "SUBTEMA_PO": "Equipamentos de Utilização Coletiva", "designação_PO": "Equipamento de Utilização Coletiva ", "especificações_PO": "Desporto", "subespecificação_PO": "Zona Desportiva de Leça da Palmeira - Pavilhão Municipal", "LABEL_PO": "D"}}, {"type": "Feature", "id": 148, "geometry": {"type": "Point", "coordinates": [-8.676038592234324, 41.17790795625304]}, "properties": {"OBJECTID": 148, "INDICE_PO": 23, "TEMA_PO": "Sistemas Estruturantes", "SUBTEMA_PO": "Equipamentos de Utilização Coletiva", "designação_PO": "Equipamento de Utilização Coletiva ", "especificações_PO": "Desporto", "subespecificação_PO": "Pavilhão Municipal de Matosinhos", "LABEL_PO": "D"}}, {"type": "Feature", "id": 149, "geometry": {"type": "Point", "coordinates": [-8.672258850255574, 41.17693411720503]}, "properties": {"OBJECTID": 149, "INDICE_PO": 23, "TEMA_PO": "Sistemas Estruturantes", "SUBTEMA_PO": "Equipamentos de Utilização Coletiva", "designação_PO": "Equipamento de Utilização Coletiva ", "especificações_PO": "Desporto", "subespecificação_PO": "Pavilhão Municipal Biquinha", "LABEL_PO": "D"}}, {"type": "Feature", "id": 150, "geometry": {"type": "Point", "coordinates": [-8.699630945590288, 41.19936805642307]}, "properties": {"OBJECTID": 150, "INDICE_PO": 23, "TEMA_PO": "Sistemas Estruturantes", "SUBTEMA_PO": "Equipamentos de Utilização Coletiva", "designação_PO": "Equipamento de Utilização Coletiva ", "especificações_PO": "Desporto", "subespecificação_PO": "Ginásio do Pavilhão Gimnodesportivo da Cohaemato", "LABEL_PO": "D"}}, {"type": "Feature", "id": 151, "geometry": {"type": "Point", "coordinates": [-8.700697437846156, 41.20023999504985]}, "properties": {"OBJECTID": 151, "INDICE_PO": 23, "TEMA_PO": "Sistemas Estruturantes", "SUBTEMA_PO": "Equipamentos de Utilização Coletiva", "designação_PO": "Equipamento de Utilização Coletiva ", "especificações_PO": "Desporto", "subespecificação_PO": "Campo de Ténis da Cohaemato", "LABEL_PO": "D"}}, {"type": "Feature", "id": 152, "geometry": {"type": "Point", "coordinates": [-8.707552529794965, 41.192858424669744]}, "properties": {"OBJECTID": 152, "INDICE_PO": 23, "TEMA_PO": "Sistemas Estruturantes", "SUBTEMA_PO": "Equipamentos de Utilização Coletiva", "designação_PO": "Equipamento de Utilização Coletiva ", "especificações_PO": "Desporto", "subespecificação_PO": "Piscina das Marés", "LABEL_PO": "D"}}, {"type": "Feature", "id": 153, "geometry": {"type": "Point", "coordinates": [-8.680584265273104, 41.188566446796564]}, "properties": {"OBJECTID": 153, "INDICE_PO": 23, "TEMA_PO": "Sistemas Estruturantes", "SUBTEMA_PO": "Equipamentos de Utilização Coletiva", "designação_PO": "Equipamento de Utilização Coletiva ", "especificações_PO": "Desporto", "subespecificação_PO": "Campo Polidesportivo da Associação de Pescadores Aposentados", "LABEL_PO": "D"}}, {"type": "Feature", "id": 154, "geometry": {"type": "Point", "coordinates": [-8.641227361222956, 41.20662293862818]}, "properties": {"OBJECTID": 154, "INDICE_PO": 23, "TEMA_PO": "Sistemas Estruturantes", "SUBTEMA_PO": "Equipamentos de Utilização Coletiva", "designação_PO": "Equipamento de Utilização Coletiva ", "especificações_PO": "Desporto", "subespecificação_PO": "Complexo Desportivo Custóias Futebol Clube", "LABEL_PO": "D"}}, {"type": "Feature", "id": 155, "geometry": {"type": "Point", "coordinates": [-8.675739285301752, 41.21715488432848]}, "properties": {"OBJECTID": 155, "INDICE_PO": 23, "TEMA_PO": "Sistemas Estruturantes", "SUBTEMA_PO": "Equipamentos de Utilização Coletiva", "designação_PO": "Equipamento de Utilização Coletiva ", "especificações_PO": "Desporto", "subespecificação_PO": "Campo de Ténis Municipal de Santa Cruz do Bispo", "LABEL_PO": "D"}}, {"type": "Feature", "id": 156, "geometry": {"type": "Point", "coordinates": [-8.677529743214722, 41.21655679252296]}, "properties": {"OBJECTID": 156, "INDICE_PO": 23, "TEMA_PO": "Sistemas Estruturantes", "SUBTEMA_PO": "Equipamentos de Utilização Coletiva", "designação_PO": "Equipamento de Utilização Coletiva ", "especificações_PO": "Desporto", "subespecificação_PO": "Parque de Jogos Os Lusitanos - Futebol Clube de Santa Cruz", "LABEL_PO": "D"}}, {"type": "Feature", "id": 157, "geometry": {"type": "Point", "coordinates": [-8.701700764905592, 41.199767905497055]}, "properties": {"OBJECTID": 157, "INDICE_PO": 23, "TEMA_PO": "Sistemas Estruturantes", "SUBTEMA_PO": "Equipamentos de Utilização Coletiva", "designação_PO": "Equipamento de Utilização Coletiva ", "especificações_PO": "Desporto", "subespecificação_PO": "Associação Clube Ténis Matosinhos", "LABEL_PO": "D"}}, {"type": "Feature", "id": 158, "geometry": {"type": "Point", "coordinates": [-8.700339081083378, 41.19929765645743]}, "properties": {"OBJECTID": 158, "INDICE_PO": 23, "TEMA_PO": "Sistemas Estruturantes", "SUBTEMA_PO": "Equipamentos de Utilização Coletiva", "designação_PO": "Equipamento de Utilização Coletiva ", "especificações_PO": "Desporto", "subespecificação_PO": "Pavilhão Gimnodesportivo da Cohaemato", "LABEL_PO": "D"}}, {"type": "Feature", "id": 159, "geometry": {"type": "Point", "coordinates": [-8.668127456018109, 41.19591279514831]}, "properties": {"OBJECTID": 159, "INDICE_PO": 23, "TEMA_PO": "Sistemas Estruturantes", "SUBTEMA_PO": "Equipamentos de Utilização Coletiva", "designação_PO": "Equipamento de Utilização Coletiva ", "especificações_PO": "Desporto", "subespecificação_PO": "Recinto Desportivo da Associação Social de Desenvolvimento de Guifões", "LABEL_PO": "D"}}, {"type": "Feature", "id": 160, "geometry": {"type": "Point", "coordinates": [-8.66646288177998, 41.20644760746623]}, "properties": {"OBJECTID": 160, "INDICE_PO": 23, "TEMA_PO": "Sistemas Estruturantes", "SUBTEMA_PO": "Equipamentos de Utilização Coletiva", "designação_PO": "Equipamento de Utilização Coletiva ", "especificações_PO": "Desporto", "subespecificação_PO": "Campo Polidesportivo da Lomba", "LABEL_PO": "D"}}, {"type": "Feature", "id": 161, "geometry": {"type": "Point", "coordinates": [-8.674625585607187, 41.18257701725811]}, "properties": {"OBJECTID": 161, "INDICE_PO": 23, "TEMA_PO": "Sistemas Estruturantes", "SUBTEMA_PO": "Equipamentos de Utilização Coletiva", "designação_PO": "Equipamento de Utilização Coletiva ", "especificações_PO": "Desporto", "subespecificação_PO": "Polidesportivo II da Cooperativa \"Água Viva\"", "LABEL_PO": "D"}}, {"type": "Feature", "id": 162, "geometry": {"type": "Point", "coordinates": [-8.6675131274689, 41.18115341804202]}, "properties": {"OBJECTID": 162, "INDICE_PO": 23, "TEMA_PO": "Sistemas Estruturantes", "SUBTEMA_PO": "Equipamentos de Utilização Coletiva", "designação_PO": "Equipamento de Utilização Coletiva ", "especificações_PO": "Desporto", "subespecificação_PO": "Complexo Recreativo Azenhas de Cima - Piscinas", "LABEL_PO": "D"}}, {"type": "Feature", "id": 163, "geometry": {"type": "Point", "coordinates": [-8.665377349204753, 41.183460072172736]}, "properties": {"OBJECTID": 163, "INDICE_PO": 23, "TEMA_PO": "Sistemas Estruturantes", "SUBTEMA_PO": "Equipamentos de Utilização Coletiva", "designação_PO": "Equipamento de Utilização Coletiva ", "especificações_PO": "Desporto", "subespecificação_PO": "Campo Polidesportivo da CHE As Sete Bicas", "LABEL_PO": "D"}}, {"type": "Feature", "id": 164, "geometry": {"type": "Point", "coordinates": [-8.671204890074787, 41.18394590812687]}, "properties": {"OBJECTID": 164, "INDICE_PO": 23, "TEMA_PO": "Sistemas Estruturantes", "SUBTEMA_PO": "Equipamentos de Utilização Coletiva", "designação_PO": "Equipamento de Utilização Coletiva ", "especificações_PO": "Desporto", "subespecificação_PO": "Pavilhão Municipal Óscar Lopes", "LABEL_PO": "D"}}, {"type": "Feature", "id": 165, "geometry": {"type": "Point", "coordinates": [-8.666904599163287, 41.18381812897164]}, "properties": {"OBJECTID": 165, "INDICE_PO": 23, "TEMA_PO": "Sistemas Estruturantes", "SUBTEMA_PO": "Equipamentos de Utilização Coletiva", "designação_PO": "Equipamento de Utilização Coletiva ", "especificações_PO": "Desporto", "subespecificação_PO": "Estádio do Mar, do Leixões Sport Clube", "LABEL_PO": "D"}}, {"type": "Feature", "id": 166, "geometry": {"type": "Point", "coordinates": [-8.665638601495326, 41.18480898285207]}, "properties": {"OBJECTID": 166, "INDICE_PO": 23, "TEMA_PO": "Sistemas Estruturantes", "SUBTEMA_PO": "Equipamentos de Utilização Coletiva", "designação_PO": "Equipamento de Utilização Coletiva ", "especificações_PO": "Desporto", "subespecificação_PO": "Complexo Desportivo Óscar Marques - Campo de terra batida", "LABEL_PO": "D"}}, {"type": "Feature", "id": 167, "geometry": {"type": "Point", "coordinates": [-8.66822358867683, 41.18481765640373]}, "properties": {"OBJECTID": 167, "INDICE_PO": 23, "TEMA_PO": "Sistemas Estruturantes", "SUBTEMA_PO": "Equipamentos de Utilização Coletiva", "designação_PO": "Equipamento de Utilização Coletiva ", "especificações_PO": "Desporto", "subespecificação_PO": "Centro de desportos e Congressos", "LABEL_PO": "D"}}, {"type": "Feature", "id": 168, "geometry": {"type": "Point", "coordinates": [-8.656849245187376, 41.1782170709036]}, "properties": {"OBJECTID": 168, "INDICE_PO": 23, "TEMA_PO": "Sistemas Estruturantes", "SUBTEMA_PO": "Equipamentos de Utilização Coletiva", "designação_PO": "Equipamento de Utilização Coletiva ", "especificações_PO": "Desporto", "subespecificação_PO": "Recinto Desportivo da Cooperativa Aldeia Nova", "LABEL_PO": "D"}}, {"type": "Feature", "id": 169, "geometry": {"type": "Point", "coordinates": [-8.65659952457659, 41.184243038868075]}, "properties": {"OBJECTID": 169, "INDICE_PO": 23, "TEMA_PO": "Sistemas Estruturantes", "SUBTEMA_PO": "Equipamentos de Utilização Coletiva", "designação_PO": "Equipamento de Utilização Coletiva ", "especificações_PO": "Desporto", "subespecificação_PO": "Piscina Municipal de Senhora da Hora", "LABEL_PO": "D"}}, {"type": "Feature", "id": 170, "geometry": {"type": "Point", "coordinates": [-8.654369558161497, 41.18450656909858]}, "properties": {"OBJECTID": 170, "INDICE_PO": 23, "TEMA_PO": "Sistemas Estruturantes", "SUBTEMA_PO": "Equipamentos de Utilização Coletiva", "designação_PO": "Equipamento de Utilização Coletiva ", "especificações_PO": "Desporto", "subespecificação_PO": "Campo Polidesportivo do Parque Manuel Pinto de Azevedo", "LABEL_PO": "D"}}, {"type": "Feature", "id": 171, "geometry": {"type": "Point", "coordinates": [-8.65619710081855, 41.18684362728113]}, "properties": {"OBJECTID": 171, "INDICE_PO": 23, "TEMA_PO": "Sistemas Estruturantes", "SUBTEMA_PO": "Equipamentos de Utilização Coletiva", "designação_PO": "Equipamento de Utilização Coletiva ", "especificações_PO": "Desporto", "subespecificação_PO": "Complexo Desportivo Sport Club Senhora da Hora", "LABEL_PO": "D"}}, {"type": "Feature", "id": 172, "geometry": {"type": "Point", "coordinates": [-8.656803026691648, 41.187447888994726]}, "properties": {"OBJECTID": 172, "INDICE_PO": 23, "TEMA_PO": "Sistemas Estruturantes", "SUBTEMA_PO": "Equipamentos de Utilização Coletiva", "designação_PO": "Equipamento de Utilização Coletiva ", "especificações_PO": "Desporto", "subespecificação_PO": "Pavilhão Municipal de Senhora da Hora", "LABEL_PO": "D"}}, {"type": "Feature", "id": 173, "geometry": {"type": "Point", "coordinates": [-8.664946317187587, 41.188179001435124]}, "properties": {"OBJECTID": 173, "INDICE_PO": 23, "TEMA_PO": "Sistemas Estruturantes", "SUBTEMA_PO": "Equipamentos de Utilização Coletiva", "designação_PO": "Equipamento de Utilização Coletiva ", "especificações_PO": "Desporto", "subespecificação_PO": "Recinto Desportivo CETA 1995", "LABEL_PO": "D"}}, {"type": "Feature", "id": 174, "geometry": {"type": "Point", "coordinates": [-8.66598088969609, 41.1889440841059]}, "properties": {"OBJECTID": 174, "INDICE_PO": 23, "TEMA_PO": "Sistemas Estruturantes", "SUBTEMA_PO": "Equipamentos de Utilização Coletiva", "designação_PO": "Equipamento de Utilização Coletiva ", "especificações_PO": "Desporto", "subespecificação_PO": "Recinto Desportivo CETA -1985/86", "LABEL_PO": "D"}}, {"type": "Feature", "id": 175, "geometry": {"type": "Point", "coordinates": [-8.666419858504993, 41.1909381798643]}, "properties": {"OBJECTID": 175, "INDICE_PO": 23, "TEMA_PO": "Sistemas Estruturantes", "SUBTEMA_PO": "Equipamentos de Utilização Coletiva", "designação_PO": "Equipamento de Utilização Coletiva ", "especificações_PO": "Desporto", "subespecificação_PO": "Complexo Recreativo da Barranha - Piscina", "LABEL_PO": "D"}}, {"type": "Feature", "id": 176, "geometry": {"type": "Point", "coordinates": [-8.666688531296593, 41.19052623830548]}, "properties": {"OBJECTID": 176, "INDICE_PO": 23, "TEMA_PO": "Sistemas Estruturantes", "SUBTEMA_PO": "Equipamentos de Utilização Coletiva", "designação_PO": "Equipamento de Utilização Coletiva ", "especificações_PO": "Desporto", "subespecificação_PO": "Academia de Ténis Senhora da Hora", "LABEL_PO": "D"}}, {"type": "Feature", "id": 177, "geometry": {"type": "Point", "coordinates": [-8.658605264767086, 41.190819490848845]}, "properties": {"OBJECTID": 177, "INDICE_PO": 23, "TEMA_PO": "Sistemas Estruturantes", "SUBTEMA_PO": "Equipamentos de Utilização Coletiva", "designação_PO": "Equipamento de Utilização Coletiva ", "especificações_PO": "Desporto", "subespecificação_PO": "Campo Polidesportivo da Cooperativa Santo Ildefonso", "LABEL_PO": "D"}}, {"type": "Feature", "id": 178, "geometry": {"type": "Point", "coordinates": [-8.649744909769831, 41.18995271227663]}, "properties": {"OBJECTID": 178, "INDICE_PO": 23, "TEMA_PO": "Sistemas Estruturantes", "SUBTEMA_PO": "Equipamentos de Utilização Coletiva", "designação_PO": "Equipamento de Utilização Coletiva ", "especificações_PO": "Desporto", "subespecificação_PO": "Campo Polidesportivo da Urbanização da CERCEA", "LABEL_PO": "D"}}, {"type": "Feature", "id": 179, "geometry": {"type": "Point", "coordinates": [-8.63885824813323, 41.18551714477267]}, "properties": {"OBJECTID": 179, "INDICE_PO": 23, "TEMA_PO": "Sistemas Estruturantes", "SUBTEMA_PO": "Equipamentos de Utilização Coletiva", "designação_PO": "Equipamento de Utilização Coletiva ", "especificações_PO": "Desporto", "subespecificação_PO": "Clube de Golf CityNorte", "LABEL_PO": "D"}}, {"type": "Feature", "id": 180, "geometry": {"type": "Point", "coordinates": [-8.633913105230388, 41.18310140147766]}, "properties": {"OBJECTID": 180, "INDICE_PO": 23, "TEMA_PO": "Sistemas Estruturantes", "SUBTEMA_PO": "Equipamentos de Utilização Coletiva", "designação_PO": "Equipamento de Utilização Coletiva ", "especificações_PO": "Desporto", "subespecificação_PO": "Complexo Recreativo \"A Telha\" - Polidesportivo", "LABEL_PO": "D"}}, {"type": "Feature", "id": 181, "geometry": {"type": "Point", "coordinates": [-8.633819339931105, 41.184379725714244]}, "properties": {"OBJECTID": 181, "INDICE_PO": 23, "TEMA_PO": "Sistemas Estruturantes", "SUBTEMA_PO": "Equipamentos de Utilização Coletiva", "designação_PO": "Equipamento de Utilização Coletiva ", "especificações_PO": "Desporto", "subespecificação_PO": "Complexo Recreativo Gente de Amanhã - Campo de Ténis", "LABEL_PO": "D"}}, {"type": "Feature", "id": 182, "geometry": {"type": "Point", "coordinates": [-8.6337775237321, 41.183818093157804]}, "properties": {"OBJECTID": 182, "INDICE_PO": 23, "TEMA_PO": "Sistemas Estruturantes", "SUBTEMA_PO": "Equipamentos de Utilização Coletiva", "designação_PO": "Equipamento de Utilização Coletiva ", "especificações_PO": "Desporto", "subespecificação_PO": "Complexo Recreativo Gente de Amanhã - Polidesportivo", "LABEL_PO": "D"}}, {"type": "Feature", "id": 183, "geometry": {"type": "Point", "coordinates": [-8.632585506190543, 41.18561033962996]}, "properties": {"OBJECTID": 183, "INDICE_PO": 23, "TEMA_PO": "Sistemas Estruturantes", "SUBTEMA_PO": "Equipamentos de Utilização Coletiva", "designação_PO": "Equipamento de Utilização Coletiva ", "especificações_PO": "Desporto", "subespecificação_PO": "Complexo Recreativo Juntos Venceremos - Polidesportivo", "LABEL_PO": "D"}}, {"type": "Feature", "id": 184, "geometry": {"type": "Point", "coordinates": [-8.63374041124986, 41.1854044789844]}, "properties": {"OBJECTID": 184, "INDICE_PO": 23, "TEMA_PO": "Sistemas Estruturantes", "SUBTEMA_PO": "Equipamentos de Utilização Coletiva", "designação_PO": "Equipamento de Utilização Coletiva ", "especificações_PO": "Desporto", "subespecificação_PO": "Complexo Recreativo Juntos Venceremos - Polidesportivo", "LABEL_PO": "D"}}, {"type": "Feature", "id": 185, "geometry": {"type": "Point", "coordinates": [-8.635110379680405, 41.18592627216789]}, "properties": {"OBJECTID": 185, "INDICE_PO": 23, "TEMA_PO": "Sistemas Estruturantes", "SUBTEMA_PO": "Equipamentos de Utilização Coletiva", "designação_PO": "Equipamento de Utilização Coletiva ", "especificações_PO": "Desporto", "subespecificação_PO": "Pavilhão Municipal do Padrão da Légua", "LABEL_PO": "D"}}, {"type": "Feature", "id": 186, "geometry": {"type": "Point", "coordinates": [-8.635105863544476, 41.18714292991893]}, "properties": {"OBJECTID": 186, "INDICE_PO": 23, "TEMA_PO": "Sistemas Estruturantes", "SUBTEMA_PO": "Equipamentos de Utilização Coletiva", "designação_PO": "Equipamento de Utilização Coletiva ", "especificações_PO": "Desporto", "subespecificação_PO": "Campo de Jogos do Padroense Futebol Clube", "LABEL_PO": "D"}}, {"type": "Feature", "id": 187, "geometry": {"type": "Point", "coordinates": [-8.642489155863494, 41.19214181393797]}, "properties": {"OBJECTID": 187, "INDICE_PO": 23, "TEMA_PO": "Sistemas Estruturantes", "SUBTEMA_PO": "Equipamentos de Utilização Coletiva", "designação_PO": "Equipamento de Utilização Coletiva ", "especificações_PO": "Desporto", "subespecificação_PO": "Recinto Desportivo (Soares dos Reis)", "LABEL_PO": "D"}}, {"type": "Feature", "id": 188, "geometry": {"type": "Point", "coordinates": [-8.643616976127474, 41.19392781118435]}, "properties": {"OBJECTID": 188, "INDICE_PO": 23, "TEMA_PO": "Sistemas Estruturantes", "SUBTEMA_PO": "Equipamentos de Utilização Coletiva", "designação_PO": "Equipamento de Utilização Coletiva ", "especificações_PO": "Desporto", "subespecificação_PO": "Piscina Municipal de Custóias", "LABEL_PO": "D"}}, {"type": "Feature", "id": 189, "geometry": {"type": "Point", "coordinates": [-8.637017545755253, 41.197284715189376]}, "properties": {"OBJECTID": 189, "INDICE_PO": 23, "TEMA_PO": "Sistemas Estruturantes", "SUBTEMA_PO": "Equipamentos de Utilização Coletiva", "designação_PO": "Equipamento de Utilização Coletiva ", "especificações_PO": "Desporto", "subespecificação_PO": "Recinto Desportivo da Zona de Lazer de Santiago", "LABEL_PO": "D"}}, {"type": "Feature", "id": 190, "geometry": {"type": "Point", "coordinates": [-8.638207791729913, 41.20084512715039]}, "properties": {"OBJECTID": 190, "INDICE_PO": 23, "TEMA_PO": "Sistemas Estruturantes", "SUBTEMA_PO": "Equipamentos de Utilização Coletiva", "designação_PO": "Equipamento de Utilização Coletiva ", "especificações_PO": "Desporto", "subespecificação_PO": "Campo Polidesportivo do Parque Desportivo António Sérgio", "LABEL_PO": "D"}}, {"type": "Feature", "id": 191, "geometry": {"type": "Point", "coordinates": [-8.637528948208779, 41.20092105962262]}, "properties": {"OBJECTID": 191, "INDICE_PO": 23, "TEMA_PO": "Sistemas Estruturantes", "SUBTEMA_PO": "Equipamentos de Utilização Coletiva", "designação_PO": "Equipamento de Utilização Coletiva ", "especificações_PO": "Desporto", "subespecificação_PO": "Campo Polidesportivo do Parque Desportivo António Sérgio", "LABEL_PO": "D"}}, {"type": "Feature", "id": 192, "geometry": {"type": "Point", "coordinates": [-8.639420849258501, 41.20328248555806]}, "properties": {"OBJECTID": 192, "INDICE_PO": 23, "TEMA_PO": "Sistemas Estruturantes", "SUBTEMA_PO": "Equipamentos de Utilização Coletiva", "designação_PO": "Equipamento de Utilização Coletiva ", "especificações_PO": "Desporto", "subespecificação_PO": "Pavilhão Municipal de Custóias", "LABEL_PO": "D"}}, {"type": "Feature", "id": 193, "geometry": {"type": "Point", "coordinates": [-8.649021939484644, 41.20923203690888]}, "properties": {"OBJECTID": 193, "INDICE_PO": 23, "TEMA_PO": "Sistemas Estruturantes", "SUBTEMA_PO": "Equipamentos de Utilização Coletiva", "designação_PO": "Equipamento de Utilização Coletiva ", "especificações_PO": "Desporto", "subespecificação_PO": "Campo Professor Fernando Machado", "LABEL_PO": "D"}}, {"type": "Feature", "id": 194, "geometry": {"type": "Point", "coordinates": [-8.635629640086583, 41.21177863433294]}, "properties": {"OBJECTID": 194, "INDICE_PO": 23, "TEMA_PO": "Sistemas Estruturantes", "SUBTEMA_PO": "Equipamentos de Utilização Coletiva", "designação_PO": "Equipamento de Utilização Coletiva ", "especificações_PO": "Desporto", "subespecificação_PO": "Ringue Desportivo e Infantil Professor Franco", "LABEL_PO": "D"}}, {"type": "Feature", "id": 195, "geometry": {"type": "Point", "coordinates": [-8.635714417012698, 41.21262798075362]}, "properties": {"OBJECTID": 195, "INDICE_PO": 23, "TEMA_PO": "Sistemas Estruturantes", "SUBTEMA_PO": "Equipamentos de Utilização Coletiva", "designação_PO": "Equipamento de Utilização Coletiva ", "especificações_PO": "Desporto", "subespecificação_PO": "Ringue Desportivo e Infantil Professor Franco", "LABEL_PO": "D"}}, {"type": "Feature", "id": 196, "geometry": {"type": "Point", "coordinates": [-8.6381427593601, 41.215464230569864]}, "properties": {"OBJECTID": 196, "INDICE_PO": 23, "TEMA_PO": "Sistemas Estruturantes", "SUBTEMA_PO": "Equipamentos de Utilização Coletiva", "designação_PO": "Equipamento de Utilização Coletiva ", "especificações_PO": "Desporto", "subespecificação_PO": "Polidesportivo José Ribeiro", "LABEL_PO": "D"}}, {"type": "Feature", "id": 197, "geometry": {"type": "Point", "coordinates": [-8.637844863941767, 41.2158862926816]}, "properties": {"OBJECTID": 197, "INDICE_PO": 23, "TEMA_PO": "Sistemas Estruturantes", "SUBTEMA_PO": "Equipamentos de Utilização Coletiva", "designação_PO": "Equipamento de Utilização Coletiva ", "especificações_PO": "Desporto", "subespecificação_PO": "Campos de ténis", "LABEL_PO": "D"}}, {"type": "Feature", "id": 198, "geometry": {"type": "Point", "coordinates": [-8.631664027977656, 41.22172013954081]}, "properties": {"OBJECTID": 198, "INDICE_PO": 23, "TEMA_PO": "Sistemas Estruturantes", "SUBTEMA_PO": "Equipamentos de Utilização Coletiva", "designação_PO": "Equipamento de Utilização Coletiva ", "especificações_PO": "Desporto", "subespecificação_PO": "Complexo Desportivo Leça do Balio", "LABEL_PO": "D"}}, {"type": "Feature", "id": 199, "geometry": {"type": "Point", "coordinates": [-8.632862039249172, 41.220211381022395]}, "properties": {"OBJECTID": 199, "INDICE_PO": 23, "TEMA_PO": "Sistemas Estruturantes", "SUBTEMA_PO": "Equipamentos de Utilização Coletiva", "designação_PO": "Equipamento de Utilização Coletiva ", "especificações_PO": "Desporto", "subespecificação_PO": "Ringue Desportivo e infantil D. Inês de Castro", "LABEL_PO": "D"}}, {"type": "Feature", "id": 200, "geometry": {"type": "Point", "coordinates": [-8.631826541455032, 41.218745263503756]}, "properties": {"OBJECTID": 200, "INDICE_PO": 23, "TEMA_PO": "Sistemas Estruturantes", "SUBTEMA_PO": "Equipamentos de Utilização Coletiva", "designação_PO": "Equipamento de Utilização Coletiva ", "especificações_PO": "Desporto", "subespecificação_PO": "Piscina Municipal de Leça do Balio", "LABEL_PO": "D"}}, {"type": "Feature", "id": 201, "geometry": {"type": "Point", "coordinates": [-8.63280517785671, 41.21842619111964]}, "properties": {"OBJECTID": 201, "INDICE_PO": 23, "TEMA_PO": "Sistemas Estruturantes", "SUBTEMA_PO": "Equipamentos de Utilização Coletiva", "designação_PO": "Equipamento de Utilização Coletiva ", "especificações_PO": "Desporto", "subespecificação_PO": "Pavilhão Municipal de Leça do Balio", "LABEL_PO": "D"}}, {"type": "Feature", "id": 202, "geometry": {"type": "Point", "coordinates": [-8.63214268522182, 41.19636227707211]}, "properties": {"OBJECTID": 202, "INDICE_PO": 23, "TEMA_PO": "Sistemas Estruturantes", "SUBTEMA_PO": "Equipamentos de Utilização Coletiva", "designação_PO": "Equipamento de Utilização Coletiva ", "especificações_PO": "Desporto", "subespecificação_PO": "Ringue Desportivo e Infantil Vilarinho de Freires", "LABEL_PO": "D"}}, {"type": "Feature", "id": 203, "geometry": {"type": "Point", "coordinates": [-8.631586652554732, 41.187588444194155]}, "properties": {"OBJECTID": 203, "INDICE_PO": 23, "TEMA_PO": "Sistemas Estruturantes", "SUBTEMA_PO": "Equipamentos de Utilização Coletiva", "designação_PO": "Equipamento de Utilização Coletiva ", "especificações_PO": "Desporto", "subespecificação_PO": "Recinto Desportivo do Bairro do Seixo", "LABEL_PO": "D"}}, {"type": "Feature", "id": 204, "geometry": {"type": "Point", "coordinates": [-8.61297323899119, 41.207830053091705]}, "properties": {"OBJECTID": 204, "INDICE_PO": 23, "TEMA_PO": "Sistemas Estruturantes", "SUBTEMA_PO": "Equipamentos de Utilização Coletiva", "designação_PO": "Equipamento de Utilização Coletiva ", "especificações_PO": "Desporto", "subespecificação_PO": "Campo Polidesportivo da cooperativa Norbicete", "LABEL_PO": "D"}}, {"type": "Feature", "id": 205, "geometry": {"type": "Point", "coordinates": [-8.601619001963952, 41.197409284]}, "properties": {"OBJECTID": 205, "INDICE_PO": 23, "TEMA_PO": "Sistemas Estruturantes", "SUBTEMA_PO": "Equipamentos de Utilização Coletiva", "designação_PO": "Equipamento de Utilização Coletiva ", "especificações_PO": "Desporto", "subespecificação_PO": "Associação Académica de S.Mamede - Campo de Ténis1", "LABEL_PO": "D"}}, {"type": "Feature", "id": 206, "geometry": {"type": "Point", "coordinates": [-8.601125782080755, 41.197407153751584]}, "properties": {"OBJECTID": 206, "INDICE_PO": 23, "TEMA_PO": "Sistemas Estruturantes", "SUBTEMA_PO": "Equipamentos de Utilização Coletiva", "designação_PO": "Equipamento de Utilização Coletiva ", "especificações_PO": "Desporto", "subespecificação_PO": "Associação Académica de S.Mamede - Campo de Ténis2", "LABEL_PO": "D"}}, {"type": "Feature", "id": 207, "geometry": {"type": "Point", "coordinates": [-8.602401281964868, 41.19685316913693]}, "properties": {"OBJECTID": 207, "INDICE_PO": 23, "TEMA_PO": "Sistemas Estruturantes", "SUBTEMA_PO": "Equipamentos de Utilização Coletiva", "designação_PO": "Equipamento de Utilização Coletiva ", "especificações_PO": "Desporto", "subespecificação_PO": "Piscina Municipal de S. Mamede de Infesta", "LABEL_PO": "D"}}, {"type": "Feature", "id": 208, "geometry": {"type": "Point", "coordinates": [-8.603957801012049, 41.19637641131421]}, "properties": {"OBJECTID": 208, "INDICE_PO": 23, "TEMA_PO": "Sistemas Estruturantes", "SUBTEMA_PO": "Equipamentos de Utilização Coletiva", "designação_PO": "Equipamento de Utilização Coletiva ", "especificações_PO": "Desporto", "subespecificação_PO": "Estádio Moreira Marques do FC Infesta", "LABEL_PO": "D"}}, {"type": "Feature", "id": 209, "geometry": {"type": "Point", "coordinates": [-8.604578553305924, 41.19636698707549]}, "properties": {"OBJECTID": 209, "INDICE_PO": 23, "TEMA_PO": "Sistemas Estruturantes", "SUBTEMA_PO": "Equipamentos de Utilização Coletiva", "designação_PO": "Equipamento de Utilização Coletiva ", "especificações_PO": "Desporto", "subespecificação_PO": "Pavilhão Manuel B. G. Ramos", "LABEL_PO": "D"}}, {"type": "Feature", "id": 210, "geometry": {"type": "Point", "coordinates": [-8.613816352885214, 41.18715456746885]}, "properties": {"OBJECTID": 210, "INDICE_PO": 23, "TEMA_PO": "Sistemas Estruturantes", "SUBTEMA_PO": "Equipamentos de Utilização Coletiva", "designação_PO": "Equipamento de Utilização Coletiva ", "especificações_PO": "Desporto", "subespecificação_PO": "Campo de jogos Associação Atlética do Telheiro", "LABEL_PO": "D"}}, {"type": "Feature", "id": 211, "geometry": {"type": "Point", "coordinates": [-8.616339428190885, 41.197903807825824]}, "properties": {"OBJECTID": 211, "INDICE_PO": 23, "TEMA_PO": "Sistemas Estruturantes", "SUBTEMA_PO": "Equipamentos de Utilização Coletiva", "designação_PO": "Equipamento de Utilização Coletiva ", "especificações_PO": "Desporto", "subespecificação_PO": "Pavilhão Eduardo Soares, da Associação Académica de S.Mamede", "LABEL_PO": "D"}}, {"type": "Feature", "id": 212, "geometry": {"type": "Point", "coordinates": [-8.615895395538898, 41.198336355732174]}, "properties": {"OBJECTID": 212, "INDICE_PO": 23, "TEMA_PO": "Sistemas Estruturantes", "SUBTEMA_PO": "Equipamentos de Utilização Coletiva", "designação_PO": "Equipamento de Utilização Coletiva ", "especificações_PO": "Desporto", "subespecificação_PO": "Campo de voleivol de praia da Associação Académica de S. Mamede", "LABEL_PO": "D"}}, {"type": "Feature", "id": 213, "geometry": {"type": "Point", "coordinates": [-8.615985496474487, 41.21110563380919]}, "properties": {"OBJECTID": 213, "INDICE_PO": 23, "TEMA_PO": "Sistemas Estruturantes", "SUBTEMA_PO": "Equipamentos de Utilização Coletiva", "designação_PO": "Equipamento de Utilização Coletiva ", "especificações_PO": "Desporto", "subespecificação_PO": "Ringue Desportivo e infantil do parque de Santana", "LABEL_PO": "D"}}, {"type": "Feature", "id": 214, "geometry": {"type": "Point", "coordinates": [-8.614216043342122, 41.21113109420607]}, "properties": {"OBJECTID": 214, "INDICE_PO": 23, "TEMA_PO": "Sistemas Estruturantes", "SUBTEMA_PO": "Equipamentos de Utilização Coletiva", "designação_PO": "Equipamento de Utilização Coletiva ", "especificações_PO": "Desporto", "subespecificação_PO": "Campo Polidesportivo de Santana", "LABEL_PO": "D"}}, {"type": "Feature", "id": 215, "geometry": {"type": "Point", "coordinates": [-8.67673466668052, 41.200367994102834]}, "properties": {"OBJECTID": 215, "INDICE_PO": 23, "TEMA_PO": "Sistemas Estruturantes", "SUBTEMA_PO": "Equipamentos de Utilização Coletiva", "designação_PO": "Equipamento de Utilização Coletiva ", "especificações_PO": "Desporto", "subespecificação_PO": "Campo de Tiro do Clube de Caçadores de Matosinhos", "LABEL_PO": "D"}}, {"type": "Feature", "id": 216, "geometry": {"type": "Point", "coordinates": [-8.598879408357448, 41.18687532845861]}, "properties": {"OBJECTID": 216, "INDICE_PO": 23, "TEMA_PO": "Sistemas Estruturantes", "SUBTEMA_PO": "Equipamentos de Utilização Coletiva", "designação_PO": "Equipamento de Utilização Coletiva ", "especificações_PO": "Desporto", "subespecificação_PO": "Parque de Jogos Manuel Ramos - Arroteia", "LABEL_PO": "D"}}]}