{"type": "FeatureCollection", "features": [{"type": "Feature", "id": 44, "geometry": {"type": "Point", "coordinates": [-8.638063395931372, 41.198722382003815]}, "properties": {"OBJECTID": 44, "INDICE_PO": 23, "TEMA_PO": "Sistemas Estruturantes", "SUBTEMA_PO": "Equipamentos de Utilização Coletiva", "designação_PO": "Equipamento de Utilização Coletiva ", "especificações_PO": "Educação", "subespecificação_PO": "EB Santiago - EB1/JI", "LABEL_PO": "E"}}, {"type": "Feature", "id": 45, "geometry": {"type": "Point", "coordinates": [-8.66314053609783, 41.20696934167527]}, "properties": {"OBJECTID": 45, "INDICE_PO": 23, "TEMA_PO": "Sistemas Estruturantes", "SUBTEMA_PO": "Equipamentos de Utilização Coletiva", "designação_PO": "Equipamento de Utilização Coletiva ", "especificações_PO": "Educação", "subespecificação_PO": "EB Lomba - EB1/JI", "LABEL_PO": "E"}}, {"type": "Feature", "id": 46, "geometry": {"type": "Point", "coordinates": [-8.666012322339473, 41.20237632047531]}, "properties": {"OBJECTID": 46, "INDICE_PO": 23, "TEMA_PO": "Sistemas Estruturantes", "SUBTEMA_PO": "Equipamentos de Utilização Coletiva", "designação_PO": "Equipamento de Utilização Coletiva ", "especificações_PO": "Educação", "subespecificação_PO": "EB Monte Ramalhão - EB1/JI", "LABEL_PO": "E"}}, {"type": "Feature", "id": 47, "geometry": {"type": "Point", "coordinates": [-8.663679290857925, 41.197462980409085]}, "properties": {"OBJECTID": 47, "INDICE_PO": 23, "TEMA_PO": "Sistemas Estruturantes", "SUBTEMA_PO": "Equipamentos de Utilização Coletiva", "designação_PO": "Equipamento de Utilização Coletiva ", "especificações_PO": "Educação", "subespecificação_PO": "EB Passos Manuel - EB1", "LABEL_PO": "E"}}, {"type": "Feature", "id": 48, "geometry": {"type": "Point", "coordinates": [-8.724753432077481, 41.26500882016916]}, "properties": {"OBJECTID": 48, "INDICE_PO": 23, "TEMA_PO": "Sistemas Estruturantes", "SUBTEMA_PO": "Equipamentos de Utilização Coletiva", "designação_PO": "Equipamento de Utilização Coletiva ", "especificações_PO": "Educação", "subespecificação_PO": "EB Praia de Angeiras - EB1/JI", "LABEL_PO": "E"}}, {"type": "Feature", "id": 49, "geometry": {"type": "Point", "coordinates": [-8.721875545681183, 41.24375019332115]}, "properties": {"OBJECTID": 49, "INDICE_PO": 23, "TEMA_PO": "Sistemas Estruturantes", "SUBTEMA_PO": "Equipamentos de Utilização Coletiva", "designação_PO": "Equipamento de Utilização Coletiva ", "especificações_PO": "Educação", "subespecificação_PO": "EB Agudela - EB1/JI", "LABEL_PO": "E"}}, {"type": "Feature", "id": 50, "geometry": {"type": "Point", "coordinates": [-8.695264433765962, 41.196842411250344]}, "properties": {"OBJECTID": 50, "INDICE_PO": 23, "TEMA_PO": "Sistemas Estruturantes", "SUBTEMA_PO": "Equipamentos de Utilização Coletiva", "designação_PO": "Equipamento de Utilização Coletiva ", "especificações_PO": "Educação", "subespecificação_PO": "EB Amorosa - EB1/JI", "LABEL_PO": "E"}}, {"type": "Feature", "id": 51, "geometry": {"type": "Point", "coordinates": [-8.702802362341425, 41.1922056009906]}, "properties": {"OBJECTID": 51, "INDICE_PO": 23, "TEMA_PO": "Sistemas Estruturantes", "SUBTEMA_PO": "Equipamentos de Utilização Coletiva", "designação_PO": "Equipamento de Utilização Coletiva ", "especificações_PO": "Educação", "subespecificação_PO": "EB Nogeira Pinto - EB1/JI", "LABEL_PO": "E"}}, {"type": "Feature", "id": 52, "geometry": {"type": "Point", "coordinates": [-8.63254226799029, 41.20796828897542]}, "properties": {"OBJECTID": 52, "INDICE_PO": 23, "TEMA_PO": "Sistemas Estruturantes", "SUBTEMA_PO": "Equipamentos de Utilização Coletiva", "designação_PO": "Equipamento de Utilização Coletiva ", "especificações_PO": "Educação", "subespecificação_PO": "EB Gondivai - EB1/JI", "LABEL_PO": "E"}}, {"type": "Feature", "id": 53, "geometry": {"type": "Point", "coordinates": [-8.679771759058392, 41.18354830195228]}, "properties": {"OBJECTID": 53, "INDICE_PO": 23, "TEMA_PO": "Sistemas Estruturantes", "SUBTEMA_PO": "Equipamentos de Utilização Coletiva", "designação_PO": "Equipamento de Utilização Coletiva ", "especificações_PO": "Educação", "subespecificação_PO": "EB Augusto Gomes - EB1/JI", "LABEL_PO": "E"}}, {"type": "Feature", "id": 54, "geometry": {"type": "Point", "coordinates": [-8.672894878261447, 41.18094205553161]}, "properties": {"OBJECTID": 54, "INDICE_PO": 23, "TEMA_PO": "Sistemas Estruturantes", "SUBTEMA_PO": "Equipamentos de Utilização Coletiva", "designação_PO": "Equipamento de Utilização Coletiva ", "especificações_PO": "Educação", "subespecificação_PO": "EB Cruz de Pau - EB1/JI", "LABEL_PO": "E"}}, {"type": "Feature", "id": 55, "geometry": {"type": "Point", "coordinates": [-8.668358235678006, 41.1916415884029]}, "properties": {"OBJECTID": 55, "INDICE_PO": 23, "TEMA_PO": "Sistemas Estruturantes", "SUBTEMA_PO": "Equipamentos de Utilização Coletiva", "designação_PO": "Equipamento de Utilização Coletiva ", "especificações_PO": "Educação", "subespecificação_PO": "EB Sendim - EB1/JI", "LABEL_PO": "E"}}, {"type": "Feature", "id": 56, "geometry": {"type": "Point", "coordinates": [-8.688027668891598, 41.183703038617935]}, "properties": {"OBJECTID": 56, "INDICE_PO": 23, "TEMA_PO": "Sistemas Estruturantes", "SUBTEMA_PO": "Equipamentos de Utilização Coletiva", "designação_PO": "Equipamento de Utilização Coletiva ", "especificações_PO": "Educação", "subespecificação_PO": "EB Godinho - EB1", "LABEL_PO": "E"}}, {"type": "Feature", "id": 57, "geometry": {"type": "Point", "coordinates": [-8.687071636110804, 41.18551109031667]}, "properties": {"OBJECTID": 57, "INDICE_PO": 23, "TEMA_PO": "Sistemas Estruturantes", "SUBTEMA_PO": "Equipamentos de Utilização Coletiva", "designação_PO": "Equipamento de Utilização Coletiva ", "especificações_PO": "Educação", "subespecificação_PO": "EB Florbela Espanca - EB1/JI", "LABEL_PO": "E"}}, {"type": "Feature", "id": 58, "geometry": {"type": "Point", "coordinates": [-8.672109459605482, 41.17777188622379]}, "properties": {"OBJECTID": 58, "INDICE_PO": 23, "TEMA_PO": "Sistemas Estruturantes", "SUBTEMA_PO": "Equipamentos de Utilização Coletiva", "designação_PO": "Equipamento de Utilização Coletiva ", "especificações_PO": "Educação", "subespecificação_PO": "EB Biquinha - EB1/JI", "LABEL_PO": "E"}}, {"type": "Feature", "id": 59, "geometry": {"type": "Point", "coordinates": [-8.685277323682879, 41.22751451548265]}, "properties": {"OBJECTID": 59, "INDICE_PO": 23, "TEMA_PO": "Sistemas Estruturantes", "SUBTEMA_PO": "Equipamentos de Utilização Coletiva", "designação_PO": "Equipamento de Utilização Coletiva ", "especificações_PO": "Educação", "subespecificação_PO": "EB Ribeiras - EB1/JI", "LABEL_PO": "E"}}, {"type": "Feature", "id": 60, "geometry": {"type": "Point", "coordinates": [-8.602486361704868, 41.19547026087346]}, "properties": {"OBJECTID": 60, "INDICE_PO": 23, "TEMA_PO": "Sistemas Estruturantes", "SUBTEMA_PO": "Equipamentos de Utilização Coletiva", "designação_PO": "Equipamento de Utilização Coletiva ", "especificações_PO": "Educação", "subespecificação_PO": "EB Igreja Velha - EB1", "LABEL_PO": "E"}}, {"type": "Feature", "id": 61, "geometry": {"type": "Point", "coordinates": [-8.605248148802776, 41.18909308056785]}, "properties": {"OBJECTID": 61, "INDICE_PO": 23, "TEMA_PO": "Sistemas Estruturantes", "SUBTEMA_PO": "Equipamentos de Utilização Coletiva", "designação_PO": "Equipamento de Utilização Coletiva ", "especificações_PO": "Educação", "subespecificação_PO": "EB Asprela - EB1", "LABEL_PO": "E"}}, {"type": "Feature", "id": 62, "geometry": {"type": "Point", "coordinates": [-8.626894793924349, 41.181325579264524]}, "properties": {"OBJECTID": 62, "INDICE_PO": 23, "TEMA_PO": "Sistemas Estruturantes", "SUBTEMA_PO": "Equipamentos de Utilização Coletiva", "designação_PO": "Equipamento de Utilização Coletiva ", "especificações_PO": "Educação", "subespecificação_PO": "EB Amieira - EB1/JI", "LABEL_PO": "E"}}, {"type": "Feature", "id": 63, "geometry": {"type": "Point", "coordinates": [-8.69983970212321, 41.19078345164738]}, "properties": {"OBJECTID": 63, "INDICE_PO": 23, "TEMA_PO": "Sistemas Estruturantes", "SUBTEMA_PO": "Equipamentos de Utilização Coletiva", "designação_PO": "Equipamento de Utilização Coletiva ", "especificações_PO": "Educação", "subespecificação_PO": "EB Corpo Santo - EB1", "LABEL_PO": "E"}}, {"type": "Feature", "id": 64, "geometry": {"type": "Point", "coordinates": [-8.642350523536534, 41.19885118306235]}, "properties": {"OBJECTID": 64, "INDICE_PO": 23, "TEMA_PO": "Sistemas Estruturantes", "SUBTEMA_PO": "Equipamentos de Utilização Coletiva", "designação_PO": "Equipamento de Utilização Coletiva ", "especificações_PO": "Educação", "subespecificação_PO": "EB Custóias(Santiago) - EB2,3", "LABEL_PO": "E"}}, {"type": "Feature", "id": 65, "geometry": {"type": "Point", "coordinates": [-8.607483234224919, 41.19524936070258]}, "properties": {"OBJECTID": 65, "INDICE_PO": 23, "TEMA_PO": "Sistemas Estruturantes", "SUBTEMA_PO": "Equipamentos de Utilização Coletiva", "designação_PO": "Equipamento de Utilização Coletiva ", "especificações_PO": "Educação", "subespecificação_PO": "EB Maria Manuela Sá - EB2,3", "LABEL_PO": "E"}}, {"type": "Feature", "id": 66, "geometry": {"type": "Point", "coordinates": [-8.662966343628707, 41.189448408246776]}, "properties": {"OBJECTID": 66, "INDICE_PO": 23, "TEMA_PO": "Sistemas Estruturantes", "SUBTEMA_PO": "Equipamentos de Utilização Coletiva", "designação_PO": "Equipamento de Utilização Coletiva ", "especificações_PO": "Educação", "subespecificação_PO": "EB Barranha - JI,EB1,2", "LABEL_PO": "E"}}, {"type": "Feature", "id": 67, "geometry": {"type": "Point", "coordinates": [-8.633060342469346, 41.217638961409044]}, "properties": {"OBJECTID": 67, "INDICE_PO": 23, "TEMA_PO": "Sistemas Estruturantes", "SUBTEMA_PO": "Equipamentos de Utilização Coletiva", "designação_PO": "Equipamento de Utilização Coletiva ", "especificações_PO": "Educação", "subespecificação_PO": "EB Leça do Balio - EB2,3", "LABEL_PO": "E"}}, {"type": "Feature", "id": 68, "geometry": {"type": "Point", "coordinates": [-8.701939823491019, 41.25108191940254]}, "properties": {"OBJECTID": 68, "INDICE_PO": 23, "TEMA_PO": "Sistemas Estruturantes", "SUBTEMA_PO": "Equipamentos de Utilização Coletiva", "designação_PO": "Equipamento de Utilização Coletiva ", "especificações_PO": "Educação", "subespecificação_PO": "EB Dr. José Domingues dos Santos - EB2,3", "LABEL_PO": "E"}}, {"type": "Feature", "id": 69, "geometry": {"type": "Point", "coordinates": [-8.690356090084798, 41.22601804550727]}, "properties": {"OBJECTID": 69, "INDICE_PO": 23, "TEMA_PO": "Sistemas Estruturantes", "SUBTEMA_PO": "Equipamentos de Utilização Coletiva", "designação_PO": "Equipamento de Utilização Coletiva ", "especificações_PO": "Educação", "subespecificação_PO": "EB Perafita - EB2,3", "LABEL_PO": "E"}}, {"type": "Feature", "id": 70, "geometry": {"type": "Point", "coordinates": [-8.660092141525066, 41.19680101537561]}, "properties": {"OBJECTID": 70, "INDICE_PO": 23, "TEMA_PO": "Sistemas Estruturantes", "SUBTEMA_PO": "Equipamentos de Utilização Coletiva", "designação_PO": "Equipamento de Utilização Coletiva ", "especificações_PO": "Educação", "subespecificação_PO": "EB Irmãos Passos (Passos José?) - EB2,3", "LABEL_PO": "E"}}, {"type": "Feature", "id": 71, "geometry": {"type": "Point", "coordinates": [-8.700460452654074, 41.1973145138086]}, "properties": {"OBJECTID": 71, "INDICE_PO": 23, "TEMA_PO": "Sistemas Estruturantes", "SUBTEMA_PO": "Equipamentos de Utilização Coletiva", "designação_PO": "Equipamento de Utilização Coletiva ", "especificações_PO": "Educação", "subespecificação_PO": "EB Leça da Palmeira - JI,EB1,EB2,3", "LABEL_PO": "E"}}, {"type": "Feature", "id": 72, "geometry": {"type": "Point", "coordinates": [-8.671117582853643, 41.18339269597084]}, "properties": {"OBJECTID": 72, "INDICE_PO": 23, "TEMA_PO": "Sistemas Estruturantes", "SUBTEMA_PO": "Equipamentos de Utilização Coletiva", "designação_PO": "Equipamento de Utilização Coletiva ", "especificações_PO": "Educação", "subespecificação_PO": "EB Professor Óscar Lopes - EB2,3", "LABEL_PO": "E"}}, {"type": "Feature", "id": 73, "geometry": {"type": "Point", "coordinates": [-8.634649637074991, 41.19100482831809]}, "properties": {"OBJECTID": 73, "INDICE_PO": 23, "TEMA_PO": "Sistemas Estruturantes", "SUBTEMA_PO": "Equipamentos de Utilização Coletiva", "designação_PO": "Equipamento de Utilização Coletiva ", "especificações_PO": "Educação", "subespecificação_PO": "ES Padrão da Légua", "LABEL_PO": "E"}}, {"type": "Feature", "id": 74, "geometry": {"type": "Point", "coordinates": [-8.679371671047749, 41.182071553824535]}, "properties": {"OBJECTID": 74, "INDICE_PO": 23, "TEMA_PO": "Sistemas Estruturantes", "SUBTEMA_PO": "Equipamentos de Utilização Coletiva", "designação_PO": "Equipamento de Utilização Coletiva ", "especificações_PO": "Educação", "subespecificação_PO": "ES Augusto Gomes", "LABEL_PO": "E"}}, {"type": "Feature", "id": 75, "geometry": {"type": "Point", "coordinates": [-8.676814016518396, 41.178481990032495]}, "properties": {"OBJECTID": 75, "INDICE_PO": 23, "TEMA_PO": "Sistemas Estruturantes", "SUBTEMA_PO": "Equipamentos de Utilização Coletiva", "designação_PO": "Equipamento de Utilização Coletiva ", "especificações_PO": "Educação", "subespecificação_PO": "ES João Gonçalves Zarco", "LABEL_PO": "E"}}, {"type": "Feature", "id": 76, "geometry": {"type": "Point", "coordinates": [-8.701280155843689, 41.19407187919249]}, "properties": {"OBJECTID": 76, "INDICE_PO": 23, "TEMA_PO": "Sistemas Estruturantes", "SUBTEMA_PO": "Equipamentos de Utilização Coletiva", "designação_PO": "Equipamento de Utilização Coletiva ", "especificações_PO": "Educação", "subespecificação_PO": "ES Boa Nova", "LABEL_PO": "E"}}, {"type": "Feature", "id": 77, "geometry": {"type": "Point", "coordinates": [-8.65689787965515, 41.18845365288716]}, "properties": {"OBJECTID": 77, "INDICE_PO": 23, "TEMA_PO": "Sistemas Estruturantes", "SUBTEMA_PO": "Equipamentos de Utilização Coletiva", "designação_PO": "Equipamento de Utilização Coletiva ", "especificações_PO": "Educação", "subespecificação_PO": "ES Senhora da Hora", "LABEL_PO": "E"}}, {"type": "Feature", "id": 78, "geometry": {"type": "Point", "coordinates": [-8.644492737065494, 41.18657264853737]}, "properties": {"OBJECTID": 78, "INDICE_PO": 23, "TEMA_PO": "Sistemas Estruturantes", "SUBTEMA_PO": "Equipamentos de Utilização Coletiva", "designação_PO": "Equipamento de Utilização Coletiva ", "especificações_PO": "Educação", "subespecificação_PO": "EB Quinta de S. Gens - EB1/JI", "LABEL_PO": "E"}}, {"type": "Feature", "id": 79, "geometry": {"type": "Point", "coordinates": [-8.644891379809046, 41.18596386493212]}, "properties": {"OBJECTID": 79, "INDICE_PO": 23, "TEMA_PO": "Sistemas Estruturantes", "SUBTEMA_PO": "Equipamentos de Utilização Coletiva", "designação_PO": "Equipamento de Utilização Coletiva ", "especificações_PO": "Educação", "subespecificação_PO": "EB Senhora da Hora - EB2,3", "LABEL_PO": "E"}}, {"type": "Feature", "id": 80, "geometry": {"type": "Point", "coordinates": [-8.64737238944716, 41.2020394825229]}, "properties": {"OBJECTID": 80, "INDICE_PO": 23, "TEMA_PO": "Sistemas Estruturantes", "SUBTEMA_PO": "Equipamentos de Utilização Coletiva", "designação_PO": "Equipamento de Utilização Coletiva ", "especificações_PO": "Educação", "subespecificação_PO": "EB Professora Elvira Valente - EB1", "LABEL_PO": "E"}}, {"type": "Feature", "id": 81, "geometry": {"type": "Point", "coordinates": [-8.613715544383215, 41.193668259990304]}, "properties": {"OBJECTID": 81, "INDICE_PO": 23, "TEMA_PO": "Sistemas Estruturantes", "SUBTEMA_PO": "Equipamentos de Utilização Coletiva", "designação_PO": "Equipamento de Utilização Coletiva ", "especificações_PO": "Educação", "subespecificação_PO": "EB Ermida - EB1/JI", "LABEL_PO": "E"}}, {"type": "Feature", "id": 82, "geometry": {"type": "Point", "coordinates": [-8.704593778942954, 41.191583275143905]}, "properties": {"OBJECTID": 82, "INDICE_PO": 23, "TEMA_PO": "Sistemas Estruturantes", "SUBTEMA_PO": "Equipamentos de Utilização Coletiva", "designação_PO": "Equipamento de Utilização Coletiva ", "especificações_PO": "Educação", "subespecificação_PO": "EB Praia - EB1/JI", "LABEL_PO": "E"}}, {"type": "Feature", "id": 83, "geometry": {"type": "Point", "coordinates": [-8.674934215656751, 41.219238543786666]}, "properties": {"OBJECTID": 83, "INDICE_PO": 23, "TEMA_PO": "Sistemas Estruturantes", "SUBTEMA_PO": "Equipamentos de Utilização Coletiva", "designação_PO": "Equipamento de Utilização Coletiva ", "especificações_PO": "Educação", "subespecificação_PO": "EB Viscondessa - EB1/JI", "LABEL_PO": "E"}}, {"type": "Feature", "id": 84, "geometry": {"type": "Point", "coordinates": [-8.698896226189126, 41.22477022891043]}, "properties": {"OBJECTID": 84, "INDICE_PO": 23, "TEMA_PO": "Sistemas Estruturantes", "SUBTEMA_PO": "Equipamentos de Utilização Coletiva", "designação_PO": "Equipamento de Utilização Coletiva ", "especificações_PO": "Educação", "subespecificação_PO": "EB Nº. 2 Perafita - EB1", "LABEL_PO": "E"}}, {"type": "Feature", "id": 85, "geometry": {"type": "Point", "coordinates": [-8.70062232145616, 41.248613968126314]}, "properties": {"OBJECTID": 85, "INDICE_PO": 23, "TEMA_PO": "Sistemas Estruturantes", "SUBTEMA_PO": "Equipamentos de Utilização Coletiva", "designação_PO": "Equipamento de Utilização Coletiva ", "especificações_PO": "Educação", "subespecificação_PO": "EB Cabanelas - EB1/JI", "LABEL_PO": "E"}}, {"type": "Feature", "id": 86, "geometry": {"type": "Point", "coordinates": [-8.652100232523757, 41.18844674326507]}, "properties": {"OBJECTID": 86, "INDICE_PO": 23, "TEMA_PO": "Sistemas Estruturantes", "SUBTEMA_PO": "Equipamentos de Utilização Coletiva", "designação_PO": "Equipamento de Utilização Coletiva ", "especificações_PO": "Educação", "subespecificação_PO": "EB Quatro Caminhos - EB1/JI", "LABEL_PO": "E"}}, {"type": "Feature", "id": 87, "geometry": {"type": "Point", "coordinates": [-8.60852847973325, 41.19583342585817]}, "properties": {"OBJECTID": 87, "INDICE_PO": 23, "TEMA_PO": "Sistemas Estruturantes", "SUBTEMA_PO": "Equipamentos de Utilização Coletiva", "designação_PO": "Equipamento de Utilização Coletiva ", "especificações_PO": "Educação", "subespecificação_PO": "EB Padre Manuel Castro - EB1", "LABEL_PO": "E"}}, {"type": "Feature", "id": 88, "geometry": {"type": "Point", "coordinates": [-8.607183491550598, 41.196425823725264]}, "properties": {"OBJECTID": 88, "INDICE_PO": 23, "TEMA_PO": "Sistemas Estruturantes", "SUBTEMA_PO": "Equipamentos de Utilização Coletiva", "designação_PO": "Equipamento de Utilização Coletiva ", "especificações_PO": "Educação", "subespecificação_PO": "ES Abel Salazar", "LABEL_PO": "E"}}, {"type": "Feature", "id": 89, "geometry": {"type": "Point", "coordinates": [-8.646100900332025, 41.204868941433084]}, "properties": {"OBJECTID": 89, "INDICE_PO": 23, "TEMA_PO": "Sistemas Estruturantes", "SUBTEMA_PO": "Equipamentos de Utilização Coletiva", "designação_PO": "Equipamento de Utilização Coletiva ", "especificações_PO": "Educação", "subespecificação_PO": "EB Quinta do Vieira - EB1/JI", "LABEL_PO": "E"}}, {"type": "Feature", "id": 90, "geometry": {"type": "Point", "coordinates": [-8.629794449520963, 41.18962532744619]}, "properties": {"OBJECTID": 90, "INDICE_PO": 23, "TEMA_PO": "Sistemas Estruturantes", "SUBTEMA_PO": "Equipamentos de Utilização Coletiva", "designação_PO": "Equipamento de Utilização Coletiva ", "especificações_PO": "Educação", "subespecificação_PO": "EB Padrão da Légua - EB1/JI", "LABEL_PO": "E"}}, {"type": "Feature", "id": 91, "geometry": {"type": "Point", "coordinates": [-8.632588983280405, 41.21709400683139]}, "properties": {"OBJECTID": 91, "INDICE_PO": 23, "TEMA_PO": "Sistemas Estruturantes", "SUBTEMA_PO": "Equipamentos de Utilização Coletiva", "designação_PO": "Equipamento de Utilização Coletiva ", "especificações_PO": "Educação", "subespecificação_PO": "EB Araújo - EB1/JI", "LABEL_PO": "E"}}, {"type": "Feature", "id": 92, "geometry": {"type": "Point", "coordinates": [-8.679142090506915, 41.20844794219352]}, "properties": {"OBJECTID": 92, "INDICE_PO": 23, "TEMA_PO": "Sistemas Estruturantes", "SUBTEMA_PO": "Equipamentos de Utilização Coletiva", "designação_PO": "Equipamento de Utilização Coletiva ", "especificações_PO": "Educação", "subespecificação_PO": "EB Portela - EB1/JI", "LABEL_PO": "E"}}, {"type": "Feature", "id": 93, "geometry": {"type": "Point", "coordinates": [-8.67871029155678, 41.18452876844806]}, "properties": {"OBJECTID": 93, "INDICE_PO": 23, "TEMA_PO": "Sistemas Estruturantes", "SUBTEMA_PO": "Equipamentos de Utilização Coletiva", "designação_PO": "Equipamento de Utilização Coletiva ", "especificações_PO": "Educação", "subespecificação_PO": "EB Matosinhos - JI,EB1,EB2,3", "LABEL_PO": "E"}}, {"type": "Feature", "id": 94, "geometry": {"type": "Point", "coordinates": [-8.712671584622196, 41.26774681198665]}, "properties": {"OBJECTID": 94, "INDICE_PO": 23, "TEMA_PO": "Sistemas Estruturantes", "SUBTEMA_PO": "Equipamentos de Utilização Coletiva", "designação_PO": "Equipamento de Utilização Coletiva ", "especificações_PO": "Educação", "subespecificação_PO": "EB Praia de Angeiras - JI", "LABEL_PO": "E"}}, {"type": "Feature", "id": 95, "geometry": {"type": "Point", "coordinates": [-8.681119991313148, 41.22175398698004]}, "properties": {"OBJECTID": 95, "INDICE_PO": 23, "TEMA_PO": "Sistemas Estruturantes", "SUBTEMA_PO": "Equipamentos de Utilização Coletiva", "designação_PO": "Equipamento de Utilização Coletiva ", "especificações_PO": "Educação", "subespecificação_PO": "EB Ribeiras - JI", "LABEL_PO": "E"}}, {"type": "Feature", "id": 96, "geometry": {"type": "Point", "coordinates": [-8.69175105111805, 41.20569202290336]}, "properties": {"OBJECTID": 96, "INDICE_PO": 23, "TEMA_PO": "Sistemas Estruturantes", "SUBTEMA_PO": "Equipamentos de Utilização Coletiva", "designação_PO": "Equipamento de Utilização Coletiva ", "especificações_PO": "Educação", "subespecificação_PO": "EB Amorosa - JI", "LABEL_PO": "E"}}, {"type": "Feature", "id": 97, "geometry": {"type": "Point", "coordinates": [-8.674110488977277, 41.18160830031587]}, "properties": {"OBJECTID": 97, "INDICE_PO": 23, "TEMA_PO": "Sistemas Estruturantes", "SUBTEMA_PO": "Equipamentos de Utilização Coletiva", "designação_PO": "Equipamento de Utilização Coletiva ", "especificações_PO": "Educação", "subespecificação_PO": "EB Cruz de Pau - JI", "LABEL_PO": "E"}}, {"type": "Feature", "id": 98, "geometry": {"type": "Point", "coordinates": [-8.639848411934636, 41.2026574905774]}, "properties": {"OBJECTID": 98, "INDICE_PO": 23, "TEMA_PO": "Sistemas Estruturantes", "SUBTEMA_PO": "Equipamentos de Utilização Coletiva", "designação_PO": "Equipamento de Utilização Coletiva ", "especificações_PO": "Educação", "subespecificação_PO": "EB Santiago - JI", "LABEL_PO": "E"}}, {"type": "Feature", "id": 99, "geometry": {"type": "Point", "coordinates": [-8.654345032148443, 41.19840418331077]}, "properties": {"OBJECTID": 99, "INDICE_PO": 23, "TEMA_PO": "Sistemas Estruturantes", "SUBTEMA_PO": "Equipamentos de Utilização Coletiva", "designação_PO": "Equipamento de Utilização Coletiva ", "especificações_PO": "Educação", "subespecificação_PO": "EB Professora Elvira Valente - JI", "LABEL_PO": "E"}}, {"type": "Feature", "id": 100, "geometry": {"type": "Point", "coordinates": [-8.630015983911127, 41.19260689361537]}, "properties": {"OBJECTID": 100, "INDICE_PO": 23, "TEMA_PO": "Sistemas Estruturantes", "SUBTEMA_PO": "Equipamentos de Utilização Coletiva", "designação_PO": "Equipamento de Utilização Coletiva ", "especificações_PO": "Educação", "subespecificação_PO": "EB Padrão da Légua - JI", "LABEL_PO": "E"}}, {"type": "Feature", "id": 101, "geometry": {"type": "Point", "coordinates": [-8.608910274264385, 41.19437688044049]}, "properties": {"OBJECTID": 101, "INDICE_PO": 23, "TEMA_PO": "Sistemas Estruturantes", "SUBTEMA_PO": "Equipamentos de Utilização Coletiva", "designação_PO": "Equipamento de Utilização Coletiva ", "especificações_PO": "Educação", "subespecificação_PO": "EB Padre Manuel Castro - JI", "LABEL_PO": "E"}}, {"type": "Feature", "id": 102, "geometry": {"type": "Point", "coordinates": [-8.69873061207157, 41.22400000260302]}, "properties": {"OBJECTID": 102, "INDICE_PO": 23, "TEMA_PO": "Sistemas Estruturantes", "SUBTEMA_PO": "Equipamentos de Utilização Coletiva", "designação_PO": "Equipamento de Utilização Coletiva ", "especificações_PO": "Educação", "subespecificação_PO": "EB Nº. 2 Perafita - JI", "LABEL_PO": "E"}}, {"type": "Feature", "id": 103, "geometry": {"type": "Point", "coordinates": [-8.683637061352261, 41.180967392769126]}, "properties": {"OBJECTID": 103, "INDICE_PO": 23, "TEMA_PO": "Sistemas Estruturantes", "SUBTEMA_PO": "Equipamentos de Utilização Coletiva", "designação_PO": "Equipamento de Utilização Coletiva ", "especificações_PO": "Educação", "subespecificação_PO": "UMC - Universidade de Medicina Chinesa_Núcleo do Porto", "LABEL_PO": "E"}}, {"type": "Feature", "id": 104, "geometry": {"type": "Point", "coordinates": [-8.59960078039845, 41.18994901076884]}, "properties": {"OBJECTID": 104, "INDICE_PO": 23, "TEMA_PO": "Sistemas Estruturantes", "SUBTEMA_PO": "Equipamentos de Utilização Coletiva", "designação_PO": "Equipamento de Utilização Coletiva ", "especificações_PO": "Educação", "subespecificação_PO": "ISCAP - Instituto Superior de Contabilidade e Administração do Porto", "LABEL_PO": "E"}}, {"type": "Feature", "id": 105, "geometry": {"type": "Point", "coordinates": [-8.652772283867051, 41.18254427252281]}, "properties": {"OBJECTID": 105, "INDICE_PO": 23, "TEMA_PO": "Sistemas Estruturantes", "SUBTEMA_PO": "Equipamentos de Utilização Coletiva", "designação_PO": "Equipamento de Utilização Coletiva ", "especificações_PO": "Educação", "subespecificação_PO": "ISSSP - Instituto Superior de Serviço Social do Porto", "LABEL_PO": "E"}}, {"type": "Feature", "id": 106, "geometry": {"type": "Point", "coordinates": [-8.662408785092122, 41.18454177144762]}, "properties": {"OBJECTID": 106, "INDICE_PO": 23, "TEMA_PO": "Sistemas Estruturantes", "SUBTEMA_PO": "Equipamentos de Utilização Coletiva", "designação_PO": "Equipamento de Utilização Coletiva ", "especificações_PO": "Educação", "subespecificação_PO": "ESAD - Escola Superior de Arte e Design", "LABEL_PO": "E"}}, {"type": "Feature", "id": 107, "geometry": {"type": "Point", "coordinates": [-8.65413642234658, 41.183576940774365]}, "properties": {"OBJECTID": 107, "INDICE_PO": 23, "TEMA_PO": "Sistemas Estruturantes", "SUBTEMA_PO": "Equipamentos de Utilização Coletiva", "designação_PO": "Equipamento de Utilização Coletiva ", "especificações_PO": "Educação", "subespecificação_PO": "EGP - University of Porto Business Shool", "LABEL_PO": "E"}}, {"type": "Feature", "id": 108, "geometry": {"type": "Point", "coordinates": [-8.691146602999003, 41.185346109582575]}, "properties": {"OBJECTID": 108, "INDICE_PO": 23, "TEMA_PO": "Sistemas Estruturantes", "SUBTEMA_PO": "Equipamentos de Utilização Coletiva", "designação_PO": "Equipamento de Utilização Coletiva ", "especificações_PO": "Educação", "subespecificação_PO": "Escola de Música Óscar da Silva, CRL", "LABEL_PO": "E"}}]}