{"type": "FeatureCollection", "features": [{"type": "Feature", "id": 23, "geometry": {"type": "Point", "coordinates": [-8.70561350739367, 41.25207147713087]}, "properties": {"OBJECTID": 23, "INDICE_PO": 23, "TEMA_PO": "Sistemas Estruturantes", "SUBTEMA_PO": "Equipamentos de Utilização Coletiva", "designação_PO": "Equipamento de Utilização Coletiva ", "especificações_PO": "Saúde", "subespecificação_PO": "Unidade de Saúde Familiar Dunas", "LABEL_PO": "S"}}, {"type": "Feature", "id": 24, "geometry": {"type": "Point", "coordinates": [-8.697375133246975, 41.198767199601285]}, "properties": {"OBJECTID": 24, "INDICE_PO": 23, "TEMA_PO": "Sistemas Estruturantes", "SUBTEMA_PO": "Equipamentos de Utilização Coletiva", "designação_PO": "Equipamento de Utilização Coletiva ", "especificações_PO": "Saúde", "subespecificação_PO": "Centro de Saúde de Leça da Palmeira", "LABEL_PO": "S"}}, {"type": "Feature", "id": 25, "geometry": {"type": "Point", "coordinates": [-8.617462419417581, 41.205137283456374]}, "properties": {"OBJECTID": 25, "INDICE_PO": 23, "TEMA_PO": "Sistemas Estruturantes", "SUBTEMA_PO": "Equipamentos de Utilização Coletiva", "designação_PO": "Equipamento de Utilização Coletiva ", "especificações_PO": "Saúde", "subespecificação_PO": "Comunidade Terapêutica do Norte - Ponte da Pedra", "LABEL_PO": "S"}}, {"type": "Feature", "id": 26, "geometry": {"type": "Point", "coordinates": [-8.611323378002048, 41.1973558541384]}, "properties": {"OBJECTID": 26, "INDICE_PO": 23, "TEMA_PO": "Sistemas Estruturantes", "SUBTEMA_PO": "Equipamentos de Utilização Coletiva", "designação_PO": "Equipamento de Utilização Coletiva ", "especificações_PO": "Saúde", "subespecificação_PO": "Centro de Saúde de S. Mamede de Infesta", "LABEL_PO": "S"}}, {"type": "Feature", "id": 27, "geometry": {"type": "Point", "coordinates": [-8.657105508531801, 41.19152082563649]}, "properties": {"OBJECTID": 27, "INDICE_PO": 23, "TEMA_PO": "Sistemas Estruturantes", "SUBTEMA_PO": "Equipamentos de Utilização Coletiva", "designação_PO": "Equipamento de Utilização Coletiva ", "especificações_PO": "Saúde", "subespecificação_PO": "Centro de Saúde da Senhora da Hora", "LABEL_PO": "S"}}, {"type": "Feature", "id": 28, "geometry": {"type": "Point", "coordinates": [-8.630961155794393, 41.18880847728704]}, "properties": {"OBJECTID": 28, "INDICE_PO": 23, "TEMA_PO": "Sistemas Estruturantes", "SUBTEMA_PO": "Equipamentos de Utilização Coletiva", "designação_PO": "Equipamento de Utilização Coletiva ", "especificações_PO": "Saúde", "subespecificação_PO": "Sociedade Portuguesa de Esclerose Multipla -Deleg. Distrital", "LABEL_PO": "S"}}, {"type": "Feature", "id": 29, "geometry": {"type": "Point", "coordinates": [-8.62968300807797, 41.18577235021613]}, "properties": {"OBJECTID": 29, "INDICE_PO": 23, "TEMA_PO": "Sistemas Estruturantes", "SUBTEMA_PO": "Equipamentos de Utilização Coletiva", "designação_PO": "Equipamento de Utilização Coletiva ", "especificações_PO": "Saúde", "subespecificação_PO": "CEBES: Centro de Saúde e Bem Estar, Cuidados C. Integrados", "LABEL_PO": "S"}}, {"type": "Feature", "id": 30, "geometry": {"type": "Point", "coordinates": [-8.663168542936095, 41.18219740698171]}, "properties": {"OBJECTID": 30, "INDICE_PO": 23, "TEMA_PO": "Sistemas Estruturantes", "SUBTEMA_PO": "Equipamentos de Utilização Coletiva", "designação_PO": "Equipamento de Utilização Coletiva ", "especificações_PO": "Saúde", "subespecificação_PO": "Hospital Pedro Hispano", "LABEL_PO": "S"}}, {"type": "Feature", "id": 31, "geometry": {"type": "Point", "coordinates": [-8.694917334555003, 41.20012795107498]}, "properties": {"OBJECTID": 31, "INDICE_PO": 23, "TEMA_PO": "Sistemas Estruturantes", "SUBTEMA_PO": "Equipamentos de Utilização Coletiva", "designação_PO": "Equipamento de Utilização Coletiva ", "especificações_PO": "Saúde", "subespecificação_PO": "Cruz Vermelha Portuguesa - Unidade de Socorro", "LABEL_PO": "S"}}, {"type": "Feature", "id": 32, "geometry": {"type": "Point", "coordinates": [-8.692180152145953, 41.182991633140084]}, "properties": {"OBJECTID": 32, "INDICE_PO": 23, "TEMA_PO": "Sistemas Estruturantes", "SUBTEMA_PO": "Equipamentos de Utilização Coletiva", "designação_PO": "Equipamento de Utilização Coletiva ", "especificações_PO": "Saúde", "subespecificação_PO": "CRI_Porto Ocidental - Equipa Técnica de Matosinhos", "LABEL_PO": "S"}}, {"type": "Feature", "id": 33, "geometry": {"type": "Point", "coordinates": [-8.679646404329722, 41.1866587815654]}, "properties": {"OBJECTID": 33, "INDICE_PO": 23, "TEMA_PO": "Sistemas Estruturantes", "SUBTEMA_PO": "Equipamentos de Utilização Coletiva", "designação_PO": "Equipamento de Utilização Coletiva ", "especificações_PO": "Saúde", "subespecificação_PO": "Unidade de Diálise da Santa Casa da Misericórdia", "LABEL_PO": "S"}}, {"type": "Feature", "id": 34, "geometry": {"type": "Point", "coordinates": [-8.678893000784806, 41.1863856669616]}, "properties": {"OBJECTID": 34, "INDICE_PO": 23, "TEMA_PO": "Sistemas Estruturantes", "SUBTEMA_PO": "Equipamentos de Utilização Coletiva", "designação_PO": "Equipamento de Utilização Coletiva ", "especificações_PO": "Saúde", "subespecificação_PO": "Centro de Diagnóstico da Santa Casa da Misericórdia", "LABEL_PO": "S"}}, {"type": "Feature", "id": 35, "geometry": {"type": "Point", "coordinates": [-8.68032457398058, 41.186189066292904]}, "properties": {"OBJECTID": 35, "INDICE_PO": 23, "TEMA_PO": "Sistemas Estruturantes", "SUBTEMA_PO": "Equipamentos de Utilização Coletiva", "designação_PO": "Equipamento de Utilização Coletiva ", "especificações_PO": "Saúde", "subespecificação_PO": "Unidade Local de Saúde de Matosinhos, EPE", "LABEL_PO": "S"}}, {"type": "Feature", "id": 36, "geometry": {"type": "Point", "coordinates": [-8.611478281845907, 41.194410303095836]}, "properties": {"OBJECTID": 36, "INDICE_PO": 23, "TEMA_PO": "Sistemas Estruturantes", "SUBTEMA_PO": "Equipamentos de Utilização Coletiva", "designação_PO": "Equipamento de Utilização Coletiva ", "especificações_PO": "Saúde", "subespecificação_PO": "Kastelo Marta Ortigão - Cuidados Continuados Pediátricos", "LABEL_PO": "S"}}]}