{"type": "FeatureCollection", "features": [{"type": "Feature", "id": 231, "geometry": {"type": "Point", "coordinates": [-8.689819746213667, 41.18731026627226]}, "properties": {"OBJECTID": 231, "INDICE_PO": 23, "TEMA_PO": "Sistemas Estruturantes", "SUBTEMA_PO": "Equipamentos de Utilização Coletiva", "designação_PO": "Equipamento de Utilização Coletiva ", "especificações_PO": "Solidariedade e Segurança Social", "subespecificação_PO": "Cruz Vermelha Portuguesa - Sede", "LABEL_PO": "SS"}}, {"type": "Feature", "id": 232, "geometry": {"type": "Point", "coordinates": [-8.689567174689685, 41.22800165877437]}, "properties": {"OBJECTID": 232, "INDICE_PO": 23, "TEMA_PO": "Sistemas Estruturantes", "SUBTEMA_PO": "Equipamentos de Utilização Coletiva", "designação_PO": "Equipamento de Utilização Coletiva ", "especificações_PO": "Solidariedade e Segurança Social", "subespecificação_PO": "Espaço do Cidadão", "LABEL_PO": "SS"}}, {"type": "Feature", "id": 233, "geometry": {"type": "Point", "coordinates": [-8.697061897044554, 41.22258791531024]}, "properties": {"OBJECTID": 233, "INDICE_PO": 23, "TEMA_PO": "Sistemas Estruturantes", "SUBTEMA_PO": "Equipamentos de Utilização Coletiva", "designação_PO": "Equipamento de Utilização Coletiva ", "especificações_PO": "Solidariedade e Segurança Social", "subespecificação_PO": "Cozinha Comunitária", "LABEL_PO": "SS"}}, {"type": "Feature", "id": 234, "geometry": {"type": "Point", "coordinates": [-8.691264774037498, 41.18029718817017]}, "properties": {"OBJECTID": 234, "INDICE_PO": 23, "TEMA_PO": "Sistemas Estruturantes", "SUBTEMA_PO": "Equipamentos de Utilização Coletiva", "designação_PO": "Equipamento de Utilização Coletiva ", "especificações_PO": "Solidariedade e Segurança Social", "subespecificação_PO": "Centro Distrital da Segurança Social do Porto, Serviço Local de Atendimento - Acção Social", "LABEL_PO": "SS"}}, {"type": "Feature", "id": 235, "geometry": {"type": "Point", "coordinates": [-8.648684885891672, 41.208748514877016]}, "properties": {"OBJECTID": 235, "INDICE_PO": 23, "TEMA_PO": "Sistemas Estruturantes", "SUBTEMA_PO": "Equipamentos de Utilização Coletiva", "designação_PO": "Equipamento de Utilização Coletiva ", "especificações_PO": "Solidariedade e Segurança Social", "subespecificação_PO": "ASAS_M - Associação de Surdos de Apoio a Surdos", "LABEL_PO": "SS"}}, {"type": "Feature", "id": 236, "geometry": {"type": "Point", "coordinates": [-8.699575670135125, 41.244026368010765]}, "properties": {"OBJECTID": 236, "INDICE_PO": 23, "TEMA_PO": "Sistemas Estruturantes", "SUBTEMA_PO": "Equipamentos de Utilização Coletiva", "designação_PO": "Equipamento de Utilização Coletiva ", "especificações_PO": "Solidariedade e Segurança Social", "subespecificação_PO": "Associação Social e Recreativa Guerra Junqueiro", "LABEL_PO": "SS"}}, {"type": "Feature", "id": 237, "geometry": {"type": "Point", "coordinates": [-8.691805990892272, 41.20617405581796]}, "properties": {"OBJECTID": 237, "INDICE_PO": 23, "TEMA_PO": "Sistemas Estruturantes", "SUBTEMA_PO": "Equipamentos de Utilização Coletiva", "designação_PO": "Equipamento de Utilização Coletiva ", "especificações_PO": "Solidariedade e Segurança Social", "subespecificação_PO": "Lar de Santa Cruz", "LABEL_PO": "SS"}}, {"type": "Feature", "id": 238, "geometry": {"type": "Point", "coordinates": [-8.684271033975545, 41.185919808817395]}, "properties": {"OBJECTID": 238, "INDICE_PO": 23, "TEMA_PO": "Sistemas Estruturantes", "SUBTEMA_PO": "Equipamentos de Utilização Coletiva", "designação_PO": "Equipamento de Utilização Coletiva ", "especificações_PO": "Solidariedade e Segurança Social", "subespecificação_PO": "Internato Nossa Senhora da Conceição", "LABEL_PO": "SS"}}, {"type": "Feature", "id": 239, "geometry": {"type": "Point", "coordinates": [-8.685596024138453, 41.184870969013765]}, "properties": {"OBJECTID": 239, "INDICE_PO": 23, "TEMA_PO": "Sistemas Estruturantes", "SUBTEMA_PO": "Equipamentos de Utilização Coletiva", "designação_PO": "Equipamento de Utilização Coletiva ", "especificações_PO": "Solidariedade e Segurança Social", "subespecificação_PO": "Lar da Obra do Padre Grilo", "LABEL_PO": "SS"}}, {"type": "Feature", "id": 240, "geometry": {"type": "Point", "coordinates": [-8.686294253028676, 41.184881924363225]}, "properties": {"OBJECTID": 240, "INDICE_PO": 23, "TEMA_PO": "Sistemas Estruturantes", "SUBTEMA_PO": "Equipamentos de Utilização Coletiva", "designação_PO": "Equipamento de Utilização Coletiva ", "especificações_PO": "Solidariedade e Segurança Social", "subespecificação_PO": "Obra do Padre Grilo - Unidades de autonomização", "LABEL_PO": "SS"}}, {"type": "Feature", "id": 241, "geometry": {"type": "Point", "coordinates": [-8.666780263121543, 41.194659063811635]}, "properties": {"OBJECTID": 241, "INDICE_PO": 23, "TEMA_PO": "Sistemas Estruturantes", "SUBTEMA_PO": "Equipamentos de Utilização Coletiva", "designação_PO": "Equipamento de Utilização Coletiva ", "especificações_PO": "Solidariedade e Segurança Social", "subespecificação_PO": "ADEIMA - Associação para o Desenvolvimento Integrado de Matosinhos", "LABEL_PO": "SS"}}, {"type": "Feature", "id": 242, "geometry": {"type": "Point", "coordinates": [-8.657530241649155, 41.18488563192011]}, "properties": {"OBJECTID": 242, "INDICE_PO": 23, "TEMA_PO": "Sistemas Estruturantes", "SUBTEMA_PO": "Equipamentos de Utilização Coletiva", "designação_PO": "Equipamento de Utilização Coletiva ", "especificações_PO": "Solidariedade e Segurança Social", "subespecificação_PO": "Associação a Casa do Caminho", "LABEL_PO": "SS"}}, {"type": "Feature", "id": 243, "geometry": {"type": "Point", "coordinates": [-8.691223351316117, 41.205880478913784]}, "properties": {"OBJECTID": 243, "INDICE_PO": 23, "TEMA_PO": "Sistemas Estruturantes", "SUBTEMA_PO": "Equipamentos de Utilização Coletiva", "designação_PO": "Equipamento de Utilização Coletiva ", "especificações_PO": "Solidariedade e Segurança Social", "subespecificação_PO": "ATI - Amigos da 3ª Idade", "LABEL_PO": "SS"}}, {"type": "Feature", "id": 244, "geometry": {"type": "Point", "coordinates": [-8.698578889343816, 41.19163215943781]}, "properties": {"OBJECTID": 244, "INDICE_PO": 23, "TEMA_PO": "Sistemas Estruturantes", "SUBTEMA_PO": "Equipamentos de Utilização Coletiva", "designação_PO": "Equipamento de Utilização Coletiva ", "especificações_PO": "Solidariedade e Segurança Social", "subespecificação_PO": "Associação Amigos Aposentados de Leça da Palmeira", "LABEL_PO": "SS"}}, {"type": "Feature", "id": 245, "geometry": {"type": "Point", "coordinates": [-8.634808572279947, 41.21180476278844]}, "properties": {"OBJECTID": 245, "INDICE_PO": 23, "TEMA_PO": "Sistemas Estruturantes", "SUBTEMA_PO": "Equipamentos de Utilização Coletiva", "designação_PO": "Equipamento de Utilização Coletiva ", "especificações_PO": "Solidariedade e Segurança Social", "subespecificação_PO": "CSLB - Centro Social de Leça do Balio", "LABEL_PO": "SS"}}, {"type": "Feature", "id": 246, "geometry": {"type": "Point", "coordinates": [-8.631778072048315, 41.19159314269614]}, "properties": {"OBJECTID": 246, "INDICE_PO": 23, "TEMA_PO": "Sistemas Estruturantes", "SUBTEMA_PO": "Equipamentos de Utilização Coletiva", "designação_PO": "Equipamento de Utilização Coletiva ", "especificações_PO": "Solidariedade e Segurança Social", "subespecificação_PO": "Centro Social e Paroquial do Padrão da Légua", "LABEL_PO": "SS"}}, {"type": "Feature", "id": 247, "geometry": {"type": "Point", "coordinates": [-8.686483524226265, 41.18440592538005]}, "properties": {"OBJECTID": 247, "INDICE_PO": 23, "TEMA_PO": "Sistemas Estruturantes", "SUBTEMA_PO": "Equipamentos de Utilização Coletiva", "designação_PO": "Equipamento de Utilização Coletiva ", "especificações_PO": "Solidariedade e Segurança Social", "subespecificação_PO": "APAM - Associação de Pescadores Aposentados de Matosinhos", "LABEL_PO": "SS"}}, {"type": "Feature", "id": 248, "geometry": {"type": "Point", "coordinates": [-8.697148162472063, 41.22514363783335]}, "properties": {"OBJECTID": 248, "INDICE_PO": 23, "TEMA_PO": "Sistemas Estruturantes", "SUBTEMA_PO": "Equipamentos de Utilização Coletiva", "designação_PO": "Equipamento de Utilização Coletiva ", "especificações_PO": "Solidariedade e Segurança Social", "subespecificação_PO": "Centro Social Paroquial Padre Ângelo Ferreira Pinto", "LABEL_PO": "SS"}}, {"type": "Feature", "id": 249, "geometry": {"type": "Point", "coordinates": [-8.602108511540267, 41.196471936204]}, "properties": {"OBJECTID": 249, "INDICE_PO": 23, "TEMA_PO": "Sistemas Estruturantes", "SUBTEMA_PO": "Equipamentos de Utilização Coletiva", "designação_PO": "Equipamento de Utilização Coletiva ", "especificações_PO": "Solidariedade e Segurança Social", "subespecificação_PO": "CATI - Centro de apoio á 3ª idade", "LABEL_PO": "SS"}}, {"type": "Feature", "id": 250, "geometry": {"type": "Point", "coordinates": [-8.667375716894393, 41.195988691069786]}, "properties": {"OBJECTID": 250, "INDICE_PO": 23, "TEMA_PO": "Sistemas Estruturantes", "SUBTEMA_PO": "Equipamentos de Utilização Coletiva", "designação_PO": "Equipamento de Utilização Coletiva ", "especificações_PO": "Solidariedade e Segurança Social", "subespecificação_PO": "ASDG - Associação Social e de Desenvolvimento de Guifões", "LABEL_PO": "SS"}}, {"type": "Feature", "id": 251, "geometry": {"type": "Point", "coordinates": [-8.665049349161173, 41.20123620586696]}, "properties": {"OBJECTID": 251, "INDICE_PO": 23, "TEMA_PO": "Sistemas Estruturantes", "SUBTEMA_PO": "Equipamentos de Utilização Coletiva", "designação_PO": "Equipamento de Utilização Coletiva ", "especificações_PO": "Solidariedade e Segurança Social", "subespecificação_PO": "CCSSG - Centro Cultural e de Solidariedade Social de Guifões", "LABEL_PO": "SS"}}, {"type": "Feature", "id": 252, "geometry": {"type": "Point", "coordinates": [-8.661497373759179, 41.19752437136163]}, "properties": {"OBJECTID": 252, "INDICE_PO": 23, "TEMA_PO": "Sistemas Estruturantes", "SUBTEMA_PO": "Equipamentos de Utilização Coletiva", "designação_PO": "Equipamento de Utilização Coletiva ", "especificações_PO": "Solidariedade e Segurança Social", "subespecificação_PO": "Residência Geriátrica Canto D'encanto (do CIVAS)", "LABEL_PO": "SS"}}, {"type": "Feature", "id": 253, "geometry": {"type": "Point", "coordinates": [-8.718921834536745, 41.25932078322355]}, "properties": {"OBJECTID": 253, "INDICE_PO": 23, "TEMA_PO": "Sistemas Estruturantes", "SUBTEMA_PO": "Equipamentos de Utilização Coletiva", "designação_PO": "Equipamento de Utilização Coletiva ", "especificações_PO": "Solidariedade e Segurança Social", "subespecificação_PO": "Centro Social Padre Ramos", "LABEL_PO": "SS"}}, {"type": "Feature", "id": 254, "geometry": {"type": "Point", "coordinates": [-8.69736123142873, 41.193585635672086]}, "properties": {"OBJECTID": 254, "INDICE_PO": 23, "TEMA_PO": "Sistemas Estruturantes", "SUBTEMA_PO": "Equipamentos de Utilização Coletiva", "designação_PO": "Equipamento de Utilização Coletiva ", "especificações_PO": "Solidariedade e Segurança Social", "subespecificação_PO": "ATI - Amigos da Terceira Idade", "LABEL_PO": "SS"}}, {"type": "Feature", "id": 255, "geometry": {"type": "Point", "coordinates": [-8.64145195977449, 41.19992190109266]}, "properties": {"OBJECTID": 255, "INDICE_PO": 23, "TEMA_PO": "Sistemas Estruturantes", "SUBTEMA_PO": "Equipamentos de Utilização Coletiva", "designação_PO": "Equipamento de Utilização Coletiva ", "especificações_PO": "Solidariedade e Segurança Social", "subespecificação_PO": "Centro Social e Cultural de Custóias", "LABEL_PO": "SS"}}, {"type": "Feature", "id": 256, "geometry": {"type": "Point", "coordinates": [-8.718496057415349, 41.25974424660856]}, "properties": {"OBJECTID": 256, "INDICE_PO": 23, "TEMA_PO": "Sistemas Estruturantes", "SUBTEMA_PO": "Equipamentos de Utilização Coletiva", "designação_PO": "Equipamento de Utilização Coletiva ", "especificações_PO": "Solidariedade e Segurança Social", "subespecificação_PO": "Centro Social Padre Ramos (Lar Senhora de Fátima)", "LABEL_PO": "SS"}}, {"type": "Feature", "id": 257, "geometry": {"type": "Point", "coordinates": [-8.67583053600572, 41.2156245191544]}, "properties": {"OBJECTID": 257, "INDICE_PO": 23, "TEMA_PO": "Sistemas Estruturantes", "SUBTEMA_PO": "Equipamentos de Utilização Coletiva", "designação_PO": "Equipamento de Utilização Coletiva ", "especificações_PO": "Solidariedade e Segurança Social", "subespecificação_PO": "Centro Social Paroquial de Santa Cruz do Bispo", "LABEL_PO": "SS"}}, {"type": "Feature", "id": 258, "geometry": {"type": "Point", "coordinates": [-8.684049185408796, 41.18529848484184]}, "properties": {"OBJECTID": 258, "INDICE_PO": 23, "TEMA_PO": "Sistemas Estruturantes", "SUBTEMA_PO": "Equipamentos de Utilização Coletiva", "designação_PO": "Equipamento de Utilização Coletiva ", "especificações_PO": "Solidariedade e Segurança Social", "subespecificação_PO": "Lar de Santana", "LABEL_PO": "SS"}}, {"type": "Feature", "id": 259, "geometry": {"type": "Point", "coordinates": [-8.68343718801821, 41.18593616092608]}, "properties": {"OBJECTID": 259, "INDICE_PO": 23, "TEMA_PO": "Sistemas Estruturantes", "SUBTEMA_PO": "Equipamentos de Utilização Coletiva", "designação_PO": "Equipamento de Utilização Coletiva ", "especificações_PO": "Solidariedade e Segurança Social", "subespecificação_PO": "Centro de Dia da Irmandade da Santa Casa da Misericórdia do Bom Jesus de Matosinhos", "LABEL_PO": "SS"}}, {"type": "Feature", "id": 260, "geometry": {"type": "Point", "coordinates": [-8.69351145133469, 41.18559790871675]}, "properties": {"OBJECTID": 260, "INDICE_PO": 23, "TEMA_PO": "Sistemas Estruturantes", "SUBTEMA_PO": "Equipamentos de Utilização Coletiva", "designação_PO": "Equipamento de Utilização Coletiva ", "especificações_PO": "Solidariedade e Segurança Social", "subespecificação_PO": "Universidade Sénior Florbela Espanca", "LABEL_PO": "SS"}}, {"type": "Feature", "id": 261, "geometry": {"type": "Point", "coordinates": [-8.681428996574017, 41.220573284618496]}, "properties": {"OBJECTID": 261, "INDICE_PO": 23, "TEMA_PO": "Sistemas Estruturantes", "SUBTEMA_PO": "Equipamentos de Utilização Coletiva", "designação_PO": "Equipamento de Utilização Coletiva ", "especificações_PO": "Solidariedade e Segurança Social", "subespecificação_PO": "AASP - Associação de Apoio Social de Perafita", "LABEL_PO": "SS"}}, {"type": "Feature", "id": 262, "geometry": {"type": "Point", "coordinates": [-8.614883799227417, 41.22036801603491]}, "properties": {"OBJECTID": 262, "INDICE_PO": 23, "TEMA_PO": "Sistemas Estruturantes", "SUBTEMA_PO": "Equipamentos de Utilização Coletiva", "designação_PO": "Equipamento de Utilização Coletiva ", "especificações_PO": "Solidariedade e Segurança Social", "subespecificação_PO": "Lar do Comércio", "LABEL_PO": "SS"}}, {"type": "Feature", "id": 263, "geometry": {"type": "Point", "coordinates": [-8.60976917697934, 41.193147929549546]}, "properties": {"OBJECTID": 263, "INDICE_PO": 23, "TEMA_PO": "Sistemas Estruturantes", "SUBTEMA_PO": "Equipamentos de Utilização Coletiva", "designação_PO": "Equipamento de Utilização Coletiva ", "especificações_PO": "Solidariedade e Segurança Social", "subespecificação_PO": "UNIARTE - Universidade Senior", "LABEL_PO": "SS"}}, {"type": "Feature", "id": 264, "geometry": {"type": "Point", "coordinates": [-8.654748989716092, 41.18569566294532]}, "properties": {"OBJECTID": 264, "INDICE_PO": 23, "TEMA_PO": "Sistemas Estruturantes", "SUBTEMA_PO": "Equipamentos de Utilização Coletiva", "designação_PO": "Equipamento de Utilização Coletiva ", "especificações_PO": "Solidariedade e Segurança Social", "subespecificação_PO": "CIVAS - Centro de Infância, Velhice e Ação Social", "LABEL_PO": "SS"}}, {"type": "Feature", "id": 265, "geometry": {"type": "Point", "coordinates": [-8.674963406201412, 41.21685852635876]}, "properties": {"OBJECTID": 265, "INDICE_PO": 23, "TEMA_PO": "Sistemas Estruturantes", "SUBTEMA_PO": "Equipamentos de Utilização Coletiva", "designação_PO": "Equipamento de Utilização Coletiva ", "especificações_PO": "Solidariedade e Segurança Social", "subespecificação_PO": "Centro de convívio de dia da 3ª idade - Vila Lia", "LABEL_PO": "SS"}}, {"type": "Feature", "id": 266, "geometry": {"type": "Point", "coordinates": [-8.650070989539946, 41.18790609112272]}, "properties": {"OBJECTID": 266, "INDICE_PO": 23, "TEMA_PO": "Sistemas Estruturantes", "SUBTEMA_PO": "Equipamentos de Utilização Coletiva", "designação_PO": "Equipamento de Utilização Coletiva ", "especificações_PO": "Solidariedade e Segurança Social", "subespecificação_PO": "Associação de Solidariedade Social Betesda Esperança e Vida", "LABEL_PO": "SS"}}, {"type": "Feature", "id": 267, "geometry": {"type": "Point", "coordinates": [-8.719881367895944, 41.233592853578905]}, "properties": {"OBJECTID": 267, "INDICE_PO": 23, "TEMA_PO": "Sistemas Estruturantes", "SUBTEMA_PO": "Equipamentos de Utilização Coletiva", "designação_PO": "Equipamento de Utilização Coletiva ", "especificações_PO": "Solidariedade e Segurança Social", "subespecificação_PO": "ALADI - Associação Lavrense de Apoio ao Diminuido Intelectual", "LABEL_PO": "SS"}}, {"type": "Feature", "id": 268, "geometry": {"type": "Point", "coordinates": [-8.61570698405988, 41.186630490180235]}, "properties": {"OBJECTID": 268, "INDICE_PO": 23, "TEMA_PO": "Sistemas Estruturantes", "SUBTEMA_PO": "Equipamentos de Utilização Coletiva", "designação_PO": "Equipamento de Utilização Coletiva ", "especificações_PO": "Solidariedade e Segurança Social", "subespecificação_PO": "AACD - Associação Amigos Criança Diferente", "LABEL_PO": "SS"}}, {"type": "Feature", "id": 269, "geometry": {"type": "Point", "coordinates": [-8.603078367055273, 41.20002217702417]}, "properties": {"OBJECTID": 269, "INDICE_PO": 23, "TEMA_PO": "Sistemas Estruturantes", "SUBTEMA_PO": "Equipamentos de Utilização Coletiva", "designação_PO": "Equipamento de Utilização Coletiva ", "especificações_PO": "Solidariedade e Segurança Social", "subespecificação_PO": "APPACDM - Centro Dr. Leonardo Coimbra (sede)", "LABEL_PO": "SS"}}, {"type": "Feature", "id": 270, "geometry": {"type": "Point", "coordinates": [-8.654880672443243, 41.18517713491407]}, "properties": {"OBJECTID": 270, "INDICE_PO": 23, "TEMA_PO": "Sistemas Estruturantes", "SUBTEMA_PO": "Equipamentos de Utilização Coletiva", "designação_PO": "Equipamento de Utilização Coletiva ", "especificações_PO": "Solidariedade e Segurança Social", "subespecificação_PO": "APPACDM - Centro Educacional de Matosinhos", "LABEL_PO": "SS"}}, {"type": "Feature", "id": 271, "geometry": {"type": "Point", "coordinates": [-8.676405968841976, 41.196331572071614]}, "properties": {"OBJECTID": 271, "INDICE_PO": 23, "TEMA_PO": "Sistemas Estruturantes", "SUBTEMA_PO": "Equipamentos de Utilização Coletiva", "designação_PO": "Equipamento de Utilização Coletiva ", "especificações_PO": "Solidariedade e Segurança Social", "subespecificação_PO": "Colégio Novos Rumos", "LABEL_PO": "SS"}}, {"type": "Feature", "id": 272, "geometry": {"type": "Point", "coordinates": [-8.669349042953602, 41.21464755427284]}, "properties": {"OBJECTID": 272, "INDICE_PO": 23, "TEMA_PO": "Sistemas Estruturantes", "SUBTEMA_PO": "Equipamentos de Utilização Coletiva", "designação_PO": "Equipamento de Utilização Coletiva ", "especificações_PO": "Solidariedade e Segurança Social", "subespecificação_PO": "AAJUDE - Associação de Apoio à Juventude Deficiente", "LABEL_PO": "SS"}}, {"type": "Feature", "id": 273, "geometry": {"type": "Point", "coordinates": [-8.689266023967319, 41.184297054540124]}, "properties": {"OBJECTID": 273, "INDICE_PO": 23, "TEMA_PO": "Sistemas Estruturantes", "SUBTEMA_PO": "Equipamentos de Utilização Coletiva", "designação_PO": "Equipamento de Utilização Coletiva ", "especificações_PO": "Solidariedade e Segurança Social", "subespecificação_PO": "Jardim de Infância Santa Cecilia - Centro Paroquial de Matosinhos", "LABEL_PO": "SS"}}, {"type": "Feature", "id": 274, "geometry": {"type": "Point", "coordinates": [-8.672091432946479, 41.182131991246024]}, "properties": {"OBJECTID": 274, "INDICE_PO": 23, "TEMA_PO": "Sistemas Estruturantes", "SUBTEMA_PO": "Equipamentos de Utilização Coletiva", "designação_PO": "Equipamento de Utilização Coletiva ", "especificações_PO": "Solidariedade e Segurança Social", "subespecificação_PO": "Centro Infantil da Cruz de Pau - Associação de Moradores da Cruz de Pau", "LABEL_PO": "SS"}}, {"type": "Feature", "id": 275, "geometry": {"type": "Point", "coordinates": [-8.682718532584296, 41.186454236349]}, "properties": {"OBJECTID": 275, "INDICE_PO": 23, "TEMA_PO": "Sistemas Estruturantes", "SUBTEMA_PO": "Equipamentos de Utilização Coletiva", "designação_PO": "Equipamento de Utilização Coletiva ", "especificações_PO": "Solidariedade e Segurança Social", "subespecificação_PO": "O Paraiso - Santa Casa da Misericórdia do Bom Jesus de Matosinhos", "LABEL_PO": "SS"}}, {"type": "Feature", "id": 276, "geometry": {"type": "Point", "coordinates": [-8.697368574214956, 41.22567394677256]}, "properties": {"OBJECTID": 276, "INDICE_PO": 23, "TEMA_PO": "Sistemas Estruturantes", "SUBTEMA_PO": "Equipamentos de Utilização Coletiva", "designação_PO": "Equipamento de Utilização Coletiva ", "especificações_PO": "Solidariedade e Segurança Social", "subespecificação_PO": "Jardim de Infância do Centro Social e Paroquial Padre Ângelo Ferreira Pinto", "LABEL_PO": "SS"}}, {"type": "Feature", "id": 277, "geometry": {"type": "Point", "coordinates": [-8.62999435162534, 41.18306508169974]}, "properties": {"OBJECTID": 277, "INDICE_PO": 23, "TEMA_PO": "Sistemas Estruturantes", "SUBTEMA_PO": "Equipamentos de Utilização Coletiva", "designação_PO": "Equipamento de Utilização Coletiva ", "especificações_PO": "Solidariedade e Segurança Social", "subespecificação_PO": "ASSUS - Associação Solidariedade Social da Urbanização do Seixo", "LABEL_PO": "SS"}}, {"type": "Feature", "id": 278, "geometry": {"type": "Point", "coordinates": [-8.642189139767433, 41.199760845763876]}, "properties": {"OBJECTID": 278, "INDICE_PO": 23, "TEMA_PO": "Sistemas Estruturantes", "SUBTEMA_PO": "Equipamentos de Utilização Coletiva", "designação_PO": "Equipamento de Utilização Coletiva ", "especificações_PO": "Solidariedade e Segurança Social", "subespecificação_PO": "Centro Social e Cultural de Custóias", "LABEL_PO": "SS"}}, {"type": "Feature", "id": 279, "geometry": {"type": "Point", "coordinates": [-8.669649306803127, 41.19735010072385]}, "properties": {"OBJECTID": 279, "INDICE_PO": 23, "TEMA_PO": "Sistemas Estruturantes", "SUBTEMA_PO": "Equipamentos de Utilização Coletiva", "designação_PO": "Equipamento de Utilização Coletiva ", "especificações_PO": "Solidariedade e Segurança Social", "subespecificação_PO": "Centro Infantil de Guifões - Centro Cultural Solidariedade Social de Guifões", "LABEL_PO": "SS"}}, {"type": "Feature", "id": 280, "geometry": {"type": "Point", "coordinates": [-8.667594914169724, 41.19556278650515]}, "properties": {"OBJECTID": 280, "INDICE_PO": 23, "TEMA_PO": "Sistemas Estruturantes", "SUBTEMA_PO": "Equipamentos de Utilização Coletiva", "designação_PO": "Equipamento de Utilização Coletiva ", "especificações_PO": "Solidariedade e Segurança Social", "subespecificação_PO": "Associação Social e de Desenvolvimento de Guifões", "LABEL_PO": "SS"}}, {"type": "Feature", "id": 281, "geometry": {"type": "Point", "coordinates": [-8.719231941023159, 41.25972867661239]}, "properties": {"OBJECTID": 281, "INDICE_PO": 23, "TEMA_PO": "Sistemas Estruturantes", "SUBTEMA_PO": "Equipamentos de Utilização Coletiva", "designação_PO": "Equipamento de Utilização Coletiva ", "especificações_PO": "Solidariedade e Segurança Social", "subespecificação_PO": "Infantário \"O Divino Salvador\" - Centro Social Padre Ramos", "LABEL_PO": "SS"}}, {"type": "Feature", "id": 282, "geometry": {"type": "Point", "coordinates": [-8.698724519086241, 41.24380924002269]}, "properties": {"OBJECTID": 282, "INDICE_PO": 23, "TEMA_PO": "Sistemas Estruturantes", "SUBTEMA_PO": "Equipamentos de Utilização Coletiva", "designação_PO": "Equipamento de Utilização Coletiva ", "especificações_PO": "Solidariedade e Segurança Social", "subespecificação_PO": "\"Creche Mãe Maria\" - Associação Social e Recreativa Guerra Junqueiro", "LABEL_PO": "SS"}}, {"type": "Feature", "id": 283, "geometry": {"type": "Point", "coordinates": [-8.63401385520846, 41.21076910568006]}, "properties": {"OBJECTID": 283, "INDICE_PO": 23, "TEMA_PO": "Sistemas Estruturantes", "SUBTEMA_PO": "Equipamentos de Utilização Coletiva", "designação_PO": "Equipamento de Utilização Coletiva ", "especificações_PO": "Solidariedade e Segurança Social", "subespecificação_PO": "Infantário de Gondivai - Centro Social de Leça do Balio", "LABEL_PO": "SS"}}, {"type": "Feature", "id": 284, "geometry": {"type": "Point", "coordinates": [-8.632354029440494, 41.19135925068862]}, "properties": {"OBJECTID": 284, "INDICE_PO": 23, "TEMA_PO": "Sistemas Estruturantes", "SUBTEMA_PO": "Equipamentos de Utilização Coletiva", "designação_PO": "Equipamento de Utilização Coletiva ", "especificações_PO": "Solidariedade e Segurança Social", "subespecificação_PO": "Infantário Paroquial \" Encanto do Padrão da Légua\"", "LABEL_PO": "SS"}}, {"type": "Feature", "id": 285, "geometry": {"type": "Point", "coordinates": [-8.687595863094572, 41.18603798014521]}, "properties": {"OBJECTID": 285, "INDICE_PO": 23, "TEMA_PO": "Sistemas Estruturantes", "SUBTEMA_PO": "Equipamentos de Utilização Coletiva", "designação_PO": "Equipamento de Utilização Coletiva ", "especificações_PO": "Solidariedade e Segurança Social", "subespecificação_PO": "Centro Infantil de Matosinhos - Santa Casa da Misericórdia do Bom Jesus de Matosinhos", "LABEL_PO": "SS"}}, {"type": "Feature", "id": 286, "geometry": {"type": "Point", "coordinates": [-8.671468697877245, 41.176095437991094]}, "properties": {"OBJECTID": 286, "INDICE_PO": 23, "TEMA_PO": "Sistemas Estruturantes", "SUBTEMA_PO": "Equipamentos de Utilização Coletiva", "designação_PO": "Equipamento de Utilização Coletiva ", "especificações_PO": "Solidariedade e Segurança Social", "subespecificação_PO": "Jardim de Infância da Biquinha - Santa Casa da Misericórdia do Bom Jesus de Matosinhos", "LABEL_PO": "SS"}}, {"type": "Feature", "id": 287, "geometry": {"type": "Point", "coordinates": [-8.673995256844416, 41.21874395655935]}, "properties": {"OBJECTID": 287, "INDICE_PO": 23, "TEMA_PO": "Sistemas Estruturantes", "SUBTEMA_PO": "Equipamentos de Utilização Coletiva", "designação_PO": "Equipamento de Utilização Coletiva ", "especificações_PO": "Solidariedade e Segurança Social", "subespecificação_PO": "Casa do Povo de Santa Cruz do Bispo - Jardim de Infância", "LABEL_PO": "SS"}}, {"type": "Feature", "id": 288, "geometry": {"type": "Point", "coordinates": [-8.676573134119678, 41.21574690077405]}, "properties": {"OBJECTID": 288, "INDICE_PO": 23, "TEMA_PO": "Sistemas Estruturantes", "SUBTEMA_PO": "Equipamentos de Utilização Coletiva", "designação_PO": "Equipamento de Utilização Coletiva ", "especificações_PO": "Solidariedade e Segurança Social", "subespecificação_PO": "Jardim Infantil do Centro Social e Paroquial de Santa Cruz do Bispo", "LABEL_PO": "SS"}}, {"type": "Feature", "id": 289, "geometry": {"type": "Point", "coordinates": [-8.647435572834109, 41.186146405526344]}, "properties": {"OBJECTID": 289, "INDICE_PO": 23, "TEMA_PO": "Sistemas Estruturantes", "SUBTEMA_PO": "Equipamentos de Utilização Coletiva", "designação_PO": "Equipamento de Utilização Coletiva ", "especificações_PO": "Solidariedade e Segurança Social", "subespecificação_PO": "CIVAS - Centro de Infância, Velhice e Ação Social da Senhora da Hora", "LABEL_PO": "SS"}}, {"type": "Feature", "id": 290, "geometry": {"type": "Point", "coordinates": [-8.663468940598063, 41.19050113246257]}, "properties": {"OBJECTID": 290, "INDICE_PO": 23, "TEMA_PO": "Sistemas Estruturantes", "SUBTEMA_PO": "Equipamentos de Utilização Coletiva", "designação_PO": "Equipamento de Utilização Coletiva ", "especificações_PO": "Solidariedade e Segurança Social", "subespecificação_PO": "Creche da Cooperativa de Habitação Económica \"As Sete Bicas\"", "LABEL_PO": "SS"}}, {"type": "Feature", "id": 291, "geometry": {"type": "Point", "coordinates": [-8.615729454830488, 41.220118568922246]}, "properties": {"OBJECTID": 291, "INDICE_PO": 23, "TEMA_PO": "Sistemas Estruturantes", "SUBTEMA_PO": "Equipamentos de Utilização Coletiva", "designação_PO": "Equipamento de Utilização Coletiva ", "especificações_PO": "Solidariedade e Segurança Social", "subespecificação_PO": "O Lar do Comércio", "LABEL_PO": "SS"}}]}